number,namefrom_station_code,type,zonefrom_station_code,from_station_code,from_station_name,to_station_code,to_station_name,departure,arrival,duration_h,duration_m,distance,return_train,sleeper,third_ac,second_ac,first_ac,first_class,chair_car,code,namecode,zonecode,state,address,latitude,longitude
04602,UDHAMPUR JAMMUTAWI DMU,DEMU,NR,UHP,UDHAMPUR,JAT,JAMMU TAWI,06:45:00,08:35:00,1.0,50.0,53.0,04601,0,0,0,0,0,0,KHH,KICHHA,NER,Uttar Pradesh,"Kichha, Uttar Pradesh",79.519746,28.913427
11039,Maharashtra Express,Exp,CR,KOP,C SHAHU M RAJ KOLHAPUR TERM,G,GONDIA JN,15:30:00,20:15:00,28.0,45.0,1346.0,11040,1,1,1,0,0,0,BTU,BARAUT,NR,Uttar Pradesh,"Baraut, Uttar Pradesh",77.273006,29.09692
06008,KollamChennai Central SF Special,SF,SR,QLN,KOLLAM JN,MAS,CHENNAI CENTRAL,11:30:00,03:40:00,16.0,10.0,858.0,06007,1,1,1,0,0,0,IJ,ITAUNJA,NER,Uttar Pradesh,"Itaunja, Uttar Pradesh",80.89123400000001,27.081067
06011,Chennai Central Kollam (Weekly) SF Special,SF,SR,MAS,CHENNAI CENTRAL,QLN,KOLLAM JN,15:15:00,05:45:00,14.0,30.0,858.0,06010,1,1,1,0,0,0,PBE,PILIBHIT JN,NER,Uttar Pradesh,"Pilibhit, Uttar Pradesh",79.813946,28.614978
06617,Coimbatore-Nagercoil Special,Exp,SR,CBE,COIMBATORE JN,NCJ,NAGERCOIL JN,20:20:00,06:40:00,10.0,20.0,497.0,06618,1,1,1,0,0,0,MBA,MAHOBA,NCR,Uttar Pradesh,"Junction Point - Khajuraho, Uttar Pradesh",79.849079,25.306914
06622,Yesvantpur-Coimbatore SF Special,SF,SR,YPR,YESVANTPUR JN,CBE,COIMBATORE JN,14:15:00,21:40:00,7.0,25.0,440.0,06621,0,0,0,0,0,1,NOLI,NOLI,NR,Uttar Pradesh,"Ghaziabad, Uttar Pradesh",77.31077099999999,28.746571
06837,Karaikkudi Manamadurai Passenger,Pass,SR,KKDI,Karaikkudi Junction,MNM,MANAMADURAI JN,18:30:00,19:50:00,1.0,20.0,61.0,06838,0,0,0,0,0,0,SUJR,SUJRA,NR,Uttar Pradesh,"State Highway 57, Uttar Pradesh",77.26134099999999,29.012729
04202,New Delhi-Lucknow tri-weekly Special,Exp,NR,NDLS,NEW DELHI,LKO,LUCKNOW,23:55:00,09:45:00,9.0,50.0,493.0,04201,1,1,1,0,0,0,CRC,CHARKHARI ROAD,NCR,Uttar Pradesh,"Charkhari, Uttar Pradesh",79.74565299999999,25.307556
11067,MUMBAI LTT - FAIZABAD Saket Exp,Exp,CR,LTT,LOKMANYA TILAK TERM,FD,FAIZABAD JN,05:20:00,09:25:00,28.0,5.0,1505.0,11068,1,1,1,0,0,0,MQP,Makrandpur,NER,Uttar Pradesh,"Aonla- Bareilly Link Rd, Uttar Pradesh",79.290097,28.213407
11094,VARANASI - MUMBAI CST Mahanagari Exp,Exp,CR,BSB,VARANASI JN,CSTM,MUMBAI CST,11:25:00,14:15:00,26.0,50.0,1533.0,11093,1,1,1,0,0,0,SEPR,SHERPUR,NR,Uttar Pradesh,"State Highway 51, Uttar Pradesh",78.25287,28.919358
11464,Jabalpur-Somnath Express,Exp,CR,JBP,JABALPUR,SMNH,SOMNATH,12:00:00,17:55:00,29.0,55.0,1415.0,11463,1,1,1,0,0,0,CLW,Chilwariya,NER,Uttar Pradesh,"Bahraich, Uttar Pradesh",81.69873199999999,27.487001000000003
12014,Amritsar-NewDelhi Shatabdi,Shtb,NR,ASR,AMRITSAR JN,NDLS,NEW DELHI,05:00:00,11:15:00,6.0,15.0,448.0,12013,0,0,0,1,0,1,BTKD,BHARATKUND,NR,Uttar Pradesh,"Bikapur, Uttar Pradesh",82.12739309999999,26.6360965
12025,Pune-Secunderabad Shatabdi Express,Shtb,CR,PUNE,PUNE JN,SC,SECUNDERABAD JN,05:50:00,14:10:00,8.0,20.0,597.0,12026,0,0,0,0,0,1,CPS,CHANDPUR SIAU HALT,NR,Uttar Pradesh,"Chandpur, Uttar Pradesh",78.27585499999999,29.13201
12126,Pragati Superfast Express,SF,CR,PUNE,PUNE JN,CSTM,MUMBAI CST,07:50:00,11:10:00,3.0,20.0,192.0,12127,0,0,0,0,0,1,DIB,DIBAI,NR,Uttar Pradesh,"Dibai, Uttar Pradesh",78.303084,28.19378
12210,Kathgodam-Kanpur Garib Rath,GR,NCR,KGM,KATHGODAM,CNB,KANPUR CENTRAL,18:30:00,04:30:00,10.0,0.0,459.0,12209,0,1,0,0,0,0,DRN,DEORANIAN,NER,Uttar Pradesh,"SH 37, Uttar Pradesh",79.476473,28.64478
12220,Secunderabad-Mumbai LTT AC Duronto Express,Drnt,SCR,SC,SECUNDERABAD JN,LTT,LOKMANYA TILAK TERM,23:05:00,11:05:00,12.0,0.0,773.0,12219,0,1,1,1,0,0,ETAH,Etah,NCR,Uttar Pradesh,"Etah, Uttar Pradesh",78.65391899999999,27.571173
12245,HOWRAH - YESVANTPUR AC Duronto Exp,Drnt,SER,HWH,HOWRAH JN,YPR,YESVANTPUR JN,11:00:00,16:00:00,29.0,0.0,1946.0,12246,1,1,1,1,0,0,GIR,Gainsari Junction,NER,Uttar Pradesh,"Balrampur, Uttar Pradesh",82.5441789069,27.5268392968
12326,NANGAL DAM - KOLKATA CHITPUR Gurumukhi Exp,SF,ER,NLDM,NANGAL DAM,KOAA,KOLKATA CHITPUR,07:00:00,15:15:00,32.0,15.0,1803.0,12325,1,1,1,0,0,0,FRH,Farhatnagar,NR,Uttar Pradesh,"Farhatnagar, Uttar Pradesh",80.143212,27.081164
12331,Himgiri Express,SF,ER,HWH,HOWRAH JN,JAT,JAMMU TAWI,23:55:00,12:20:00,36.0,25.0,2021.0,12332,1,1,1,0,0,0,GADM,Ganga Dham,NER,Uttar Pradesh,"Ganga Dham, Uttar Pradesh",81.930509,27.20976
12295,BANGALORE - PATLIPUTRA Sanghamitra SF Exp,SF,SWR,SBC,BANGALORE CITY JN,PPTA,PATLIPUTRA,09:00:00,09:20:00,48.0,20.0,2729.0,12296,1,1,1,0,0,0,GLH,Gulaothi,NR,Uttar Pradesh,"Gulaothi, Uttar Pradesh",77.801799,28.582962
12363,KOLKATA CHITPUR - HALDIBARI SF Intercity Exp,SF,ER,KOAA,KOLKATA CHITPUR,HDB,HALDIBARI,09:05:00,20:25:00,11.0,20.0,620.0,12364,0,0,0,0,0,1,GYN,GYANPUR ROAD,NER,Uttar Pradesh,"Bhadohi District, Uttar Pradesh",82.4272883557,25.280144011
12415,Indore-Nizamuddin Express,SF,NR,INDB,INDORE JN BG,NZM,DELHI H NIZAMUDDIN,16:20:00,05:40:00,13.0,20.0,817.0,12416,1,1,1,1,0,0,IDM,Indemau,NR,Uttar Pradesh,"Indemau, Uttar Pradesh",80.767021,26.318344
12429,Bangalore - Hazrat Nizamuddin Rajdhani Express,Raj,NR,SBC,BANGALORE CITY JN,NZM,DELHI H NIZAMUDDIN,20:20:00,05:50:00,33.0,30.0,2365.0,12430,0,1,1,1,0,0,ICL,Ichauli,NCR,Uttar Pradesh,"Maudaha, Uttar Pradesh",80.178833,25.520955
12472,Jammu Tawi - Mumbai Bandra (T.) SF Swaraj Express,SF,NR,JAT,JAMMU TAWI,BDTS,MUMBAI BANDRA TERMINUS,11:15:00,18:05:00,30.0,50.0,1950.0,12471,1,1,1,0,0,0,JI,JHUSI,NER,Uttar Pradesh,"NH 2, Uttar Pradesh",81.91664399999999,25.431145
16359,ERNAKULAM - PATNA Exp,Exp,SR,ERS,ERNAKULAM JN,PNBE,PATNA JN,22:45:00,09:50:00,59.0,5.0,2988.0,16360,1,1,1,0,0,0,JKI,Kauriaa Jungle,?,Uttar Pradesh,"National Highway 29, Uttar Pradesh",83.29979800000001,26.881072
12509,BENGALURU - GUWAHATI (Kaziranga) SF Express,SF,NER,BNC,BANGALORE CANT,GHY,GUWAHATI,23:30:00,05:50:00,54.0,20.0,2992.0,12510,1,1,1,0,0,0,KJC,Kasganj City,NER,Uttar Pradesh,"State Highway 33, Uttar Pradesh",78.658063,27.814972
12518,GUWAHATI - KOLKATA Garib Rath Exp,GR,NER,GHY,GUWAHATI,KOAA,KOLKATA CHITPUR,21:00:00,15:00:00,18.0,0.0,1027.0,12517,0,1,0,0,0,0,KID,KHAIRAR JN,NCR,Uttar Pradesh,"NH-76 Banda(05192-224813), Uttar Pradesh",80.236073,25.451955
12521,Raptisagar Express,SF,ECR,BJU,BARAUNI JN,ERS,ERNAKULAM JN,23:00:00,13:20:00,62.0,20.0,3441.0,12522,1,1,1,1,0,0,KHOH,KHOH,NCR,Uttar Pradesh,"National Highway 76, Uttar Pradesh",80.979976,25.209491000000003
12524,New Delhi New Jalpaiguri SuperFast Express,SF,NFR,NDLS,NEW DELHI,NJP,NEW JALPAIGURI,15:10:00,18:35:00,27.0,25.0,1497.0,12523,1,1,1,0,0,0,KLAR,KULPAHAR,NCR,Uttar Pradesh,"Kulpahar, Uttar Pradesh",79.63751,25.29552
12532,Lucknow Gorakhpur Inter City Express,SF,NER,LJN,LUCKNOW JN,GKP,GORAKHPUR JN,16:35:00,21:30:00,4.0,55.0,279.0,12531,0,0,0,0,0,1,KCT,Kirakat,NER,Uttar Pradesh,"Jaunpur, Uttar Pradesh",82.924798,25.645355
12582,Bhubaneshwar-Pune Express,SF,ECoR,BBS,BHUBANESWAR,PUNE,PUNE JN,22:15:00,05:00:00,30.0,45.0,1689.0,12581,1,1,1,0,0,0,KDPS,KADIPUR SANI HA,NER,Uttar Pradesh,"Kadipur Sani, Uttar Pradesh",80.779037,27.862753
12583,LUCKNOW - DELHI ANAND VIHAR T DOUBLE DECKER,SF,NFR,LJN,LUCKNOW JN,ANVT,ANAND VIHAR TRM,19:40:00,10:15:00,38.0,35.0,2071.0,12584,1,1,1,0,0,0,KITN,KHIRI TOWN,NER,Uttar Pradesh,"Kheri, Uttar Pradesh",80.788481,27.902944
12560,Shiv Ganga Express,SF,NER,NDLS,NEW DELHI,BSB,VARANASI JN,18:45:00,07:30:00,12.0,45.0,758.0,12559,1,1,1,1,0,0,KOZ,KOSMA,NCR,Uttar Pradesh,"Kosma, Uttar Pradesh",78.837282,27.156663
12628,Karnataka Express,SF,SWR,NDLS,NEW DELHI,SBC,BANGALORE CITY JN,21:15:00,13:40:00,40.0,25.0,2406.0,12627,1,1,1,1,0,0,KNH,Konch,NCR,Uttar Pradesh,"Kocha, Uttar Pradesh",79.15770702,25.99510551
12696,Trivandrum-Chennai Superfast Express,SF,SR,TVC,TRIVANDRUM CENTRAL,MAS,CHENNAI CENTRAL,17:10:00,09:50:00,16.0,40.0,922.0,12695,1,1,1,0,1,0,LRD,LAR ROAD,NER,Uttar Pradesh,"Deoria, Uttar Pradesh",83.91018299999999,26.21389
40015,Chennai Beach Tambaram EMU(12 Car),MEMU,SR,MSB,CHENNAI BEACH,TBM,TAMBARAM,07:57:00,08:52:00,0.0,55.0,33.0,,0,0,0,0,0,0,KURO,Korari,NR,Uttar Pradesh,"State Highway 38, Uttar Pradesh",80.529002,26.48788
12686,Mangalore - Chennai Express,SF,SR,MAQ,MANGALORE CNTL,MAS,CHENNAI CENTRAL,16:10:00,08:00:00,15.0,50.0,889.0,12685,1,1,1,1,0,0,KXK,Kharkhauda,NR,Uttar Pradesh,"State Highway 18, Uttar Pradesh",77.73904300000001,28.833445
12691,CHENNAI - SSP NILAYAM SF Exp,SF,SR,MAS,CHENNAI CENTRAL,SSPN,SATYA SAI P NILAYAM,23:30:00,09:20:00,9.0,50.0,529.0,12692,1,1,1,0,0,0,LGO,LalgopalGanj,NR,Uttar Pradesh,"Lal Gopalganj, Uttar Pradesh",81.630185,25.642195
12720,HYDERABAD DECCAN - AJMER SF Exp,SF,SCR,HYB,HYDERABAD DECCAN,AII,AJMER JN,20:30:00,03:05:00,30.0,35.0,1711.0,12719,1,1,1,0,0,0,LLJ,LalGanj,NR,Uttar Pradesh,"Lalganj, Uttar Pradesh",80.973175,26.172392
12718,Ratnachal SF Express,SF,SCR,BZA,VIJAYAWADA JN,VSKP,VISHAKAPATNAM,06:05:00,12:05:00,6.0,0.0,351.0,12717,0,0,0,0,0,1,MALA,MALA,NER,Uttar Pradesh,"Pilibhit, Uttar Pradesh",79.916972,28.592851
12729,Pune-Nanded Express,SF,SCR,PUNE,PUNE JN,NED,HUZUR SAHIB NANDED,22:00:00,10:00:00,12.0,0.0,662.0,12730,1,1,1,0,0,0,MJHL,MAJADA HALT,NR,Uttar Pradesh,"Majada Halt, Uttar Pradesh",78.74320900000001,28.461762
12789,Rameswaram Kanyakumari SF Express,SF,SR,RMM,RAMESWARAM,CAPE,KANYAKUMARI,20:45:00,04:05:00,7.0,20.0,407.0,12790,1,1,0,0,0,0,MHO,MAHPUR,NER,Uttar Pradesh,"Mahpur Bhimapar Marg, Uttar Pradesh",83.246984,25.605166
12882,Puri Howrah Garib Rath,GR,SER,PURI,PURI,HWH,HOWRAH JN,22:15:00,07:05:00,8.0,50.0,502.0,12881,0,1,0,0,0,0,MIN,Mihinpurwa,NER,Uttar Pradesh,"Mihinpurwa, Uttar Pradesh",81.38446715209999,28.0273441203
12920,Malwa Express,SF,WR,JAT,JAMMU TAWI,INDB,INDORE JN BG,09:00:00,12:50:00,27.0,50.0,1540.0,12919,1,1,1,0,0,0,MTH,MATAUNDH,NCR,Uttar Pradesh,"National Highway 76, Uttar Pradesh",80.148507,25.418978
12907,Maharashtra Sampark Kranti Express,SKr,WR,BDTS,MUMBAI BANDRA TERMINUS,NZM,DELHI H NIZAMUDDIN,16:50:00,13:45:00,20.0,55.0,1366.0,12908,1,1,1,0,0,0,MWF,MAGARDAHA,ECR,Uttar Pradesh,"Obra, Uttar Pradesh",82.905844,24.388753
12959,MUMBAI DADAR - BHUJ SF Exp,SF,WR,DDR,MUMBAI DADAR WEST,BHUJ,BHUJ,23:55:00,17:40:00,17.0,45.0,977.0,12960,1,1,1,0,0,0,MSTH,Misrikh Tirath,NR,Uttar Pradesh,"Sitapur, Uttar Pradesh",80.530303,27.422484
12965,Gwalior Udaipur Express,SF,NWR,GWL,GWALIOR JN,UDZ,UDAIPUR CITY,15:50:00,06:10:00,14.0,20.0,794.0,12966,1,1,1,1,0,0,MGWN,MAHGAWAN HALT,NR,Uttar Pradesh,"Nawab Yousuf Rd, Uttar Pradesh",82.69625099999999,25.817256
12966,Udaipur Gwalior Express,SF,NWR,UDZ,UDAIPUR CITY,GWL,GWALIOR JN,22:20:00,12:45:00,14.0,25.0,794.0,12965,1,1,1,1,0,0,DDD,DHONDHA DIH,NER,Uttar Pradesh,"MDR 94E, Uttar Pradesh",83.79552,25.672848
12984,Chandigarh-Ajmer GaribRath,GR,NWR,CDG,CHANDIGARH,AII,AJMER JN,21:05:00,09:55:00,12.0,50.0,740.0,12983,0,1,0,0,0,0,NRY,Nyoriya Husenpur,NER,Uttar Pradesh,"Neoria Husainpur, Uttar Pradesh",79.88966099999999,28.734528
12954,August Kranti Rajdhani Express,Raj,WR,NZM,DELHI H NIZAMUDDIN,BCT,Mumbai Central,16:55:00,10:35:00,17.0,40.0,1377.0,12953,0,1,1,1,0,0,ACH,Achalganj,NR,Uttar Pradesh,"Bithar, Uttar Pradesh",80.54541499999999,26.444642
13009,Doon Express,Exp,ER,HWH,HOWRAH JN,DDN,DEHRADUN,20:35:00,07:10:00,34.0,35.0,1557.0,13010,1,1,1,0,0,0,NNX,NANAUTA,NR,Uttar Pradesh,"MDR 2W, Uttar Pradesh",77.442397,29.712202
13017,Ganadevta Express,Exp,ER,HWH,HOWRAH JN,AZ,AZIMGANJ JN,06:05:00,13:05:00,7.0,0.0,278.0,13018,0,0,0,0,0,1,OEL,OEL,NER,Uttar Pradesh,"Oel, Uttar Pradesh",80.74816,27.819798
13018,Ganadevta Express,Exp,ER,AZ,AZIMGANJ JN,HWH,HOWRAH JN,15:30:00,21:45:00,6.0,15.0,278.0,13017,0,0,0,0,0,1,PD,PHARADAHAN,NER,Uttar Pradesh,"SH 21, Uttar Pradesh",80.631949,27.993457
13026,Bhopal-Howrah Express,Exp,ER,BPL,BHOPAL JN,HWH,HOWRAH JN,07:35:00,15:00:00,31.0,25.0,1459.0,13025,1,1,1,0,0,0,NSA,Nishangara,NER,Uttar Pradesh,"Uttar Pradesh, Uttar Pradesh",81.311271,28.112457
13024,Gaya-Howrah Express,Exp,ER,GAYA,GAYA JN,HWH,HOWRAH JN,12:10:00,03:40:00,15.0,30.0,654.0,13023,1,0,0,0,0,0,PNRA,PANIARA,NER,Uttar Pradesh,"National Highway 29, Uttar Pradesh",83.525851,25.902065
13117,Kolkata Berhampore Court Express,Exp,ER,KOAA,KOLKATA CHITPUR,BPC,Berhampore Court,20:30:00,00:20:00,3.0,50.0,182.0,13118,0,0,0,0,0,1,PLK,PALIA KALAN,NER,Uttar Pradesh,"Palia Kalan, Uttar Pradesh",80.582392,28.426644
13188,Rampurhat- Sealdah Express,Exp,ER,RPH,RAMPUR HAT,SDAH,KOLKATA SEALDAH,14:05:00,18:45:00,4.0,40.0,226.0,13187,0,0,0,0,0,1,MHBG,Mahadev Buzurg,NER,Uttar Pradesh,"Mahadeva Buzrug, Uttar Pradesh",82.87452,27.451001
13330,Ganga Damodar Express,Exp,ECR,PNBE,PATNA JN,DHN,DHANBAD JN,23:30:00,05:20:00,5.0,50.0,291.0,13329,1,1,1,0,0,0,RR,RICHHA ROAD,NER,Uttar Pradesh,"State Highway 37, Uttar Pradesh",79.488904,28.717269
13414,Farakka Express,Exp,ER,DLI,OLD DELHI,MLDT,MALDA TOWN,21:50:00,07:20:00,33.0,30.0,1416.0,13413,1,1,1,0,0,0,RCRA,Ramchaura,NER,Uttar Pradesh,"National Highway 29, Uttar Pradesh",83.26840578,26.9979518998
13504,Asansol-Sealdah InterCity Express,Exp,ER,ASN,ASANSOL JN,SDAH,KOLKATA SEALDAH,06:35:00,10:45:00,4.0,10.0,220.0,13503,0,0,0,0,0,0,PTPR,Pratabpur,NER,Uttar Pradesh,"Pilibhit, Uttar Pradesh",79.8145455212,28.4764188903
14085,Haryana Express,Exp,NR,TKJ,TILAK BRIDGE,SSA,Sirsa,18:00:00,00:30:00,6.0,30.0,264.0,14086,0,0,0,0,0,0,JSR,JASRA,NCR,Uttar Pradesh,"Jasra, Uttar Pradesh",81.774617,25.280002
14110,Kanpur Chitrakoot Express,Exp,NCR,CNB,KANPUR CENTRAL,CKTD,CHITRAKUTDHAM KARWI,10:00:00,14:35:00,4.0,35.0,213.0,14109,0,0,0,0,0,0,SAF,SALKHAPUR,NR,Uttar Pradesh,"Kathiravan Paramalpatti Rd, Uttar Pradesh",82.680471,25.655084
14119,Kathgodam Dehradun Express,Exp,NCR,KGM,KATHGODAM,DDN,DEHRADUN,19:45:00,04:20:00,8.0,35.0,335.0,14120,1,0,1,1,0,0,SKW,Sheikhupur,NER,Uttar Pradesh,"State Highway 33, Uttar Pradesh",79.10472999999999,28.003862
14124,Kanpur Pratapgarh InterCity Express,Exp,NCR,CNB,KANPUR CENTRAL,PBH,PARTAPGARH JN,17:35:00,22:50:00,5.0,15.0,245.0,14123,0,0,0,0,0,0,SFA,SANHERA HALT,NR,Uttar Pradesh,"Sunehra/Khekra, Uttar Pradesh",77.28233900000001,28.903375
14163,Sangam Express,Exp,NCR,ALD,ALLAHABAD JN,MTC,MEERUT CITY,17:45:00,06:40:00,12.0,55.0,639.0,14164,1,1,1,0,0,0,SD,SIDHAULI,NER,Uttar Pradesh,"Sidhauli, Uttar Pradesh",80.837587,27.281002
14206,Delhi-Faizabad Express,Exp,NR,DLI,OLD DELHI,FD,FAIZABAD JN,18:40:00,07:20:00,12.0,40.0,615.0,14205,1,1,1,0,0,0,SG,SHAHGARH,NER,Uttar Pradesh,"Pilibhit, Uttar Pradesh",80.043015,28.559235
14212,NewDelhi-Agra InterCity Express,Exp,NCR,NDLS,NEW DELHI,AGC,AGRA CANTT,17:40:00,21:50:00,4.0,10.0,195.0,14211,0,0,1,1,0,1,SDC,SAIDABAD,NER,Uttar Pradesh,"Handia, Uttar Pradesh",82.12019500000001,25.379137
14630,Firozpur Ludhiana Sutlej Express,Exp,NR,FZR,FIROZPUR CANT,LDH,LUDHIANA JN,17:20:00,19:55:00,2.0,35.0,124.0,14629,0,0,0,0,0,0,SWC,SHIVRAMPUR,NCR,Uttar Pradesh,"National Highway 76, Uttar Pradesh",80.82678299999999,25.219375000000003
15011,LUCKNOW - CHANDIGARH Exp,Exp,NER,LJN,LUCKNOW JN,CDG,CHANDIGARH,22:55:00,14:50:00,15.0,55.0,724.0,15012,1,0,1,0,0,0,DXK,DHANA KHERLI,NCR,Uttar Pradesh,"Fatehpur Sikri, Uttar Pradesh",77.53577899999999,26.950169
13103,Bhagirathi Express,Exp,ER,SDAH,KOLKATA SEALDAH,LGL,Lalgola,18:25:00,22:55:00,4.0,30.0,227.0,13104,0,0,0,0,0,1,FTS,FATEHPUR SIKRI,NCR,Uttar Pradesh,"Agra, Uttar Pradesh",77.670597,27.093989
13245,Capital Express,Exp,ECR,NJP,NEW JALPAIGURI,DNR,DANAPUR,14:40:00,04:50:00,14.0,10.0,501.0,13246,1,1,1,0,0,0,PTLI,PATHAULI,NCR,Uttar Pradesh,"Agra Fort, Uttar Pradesh",77.924593761,27.1568431942
14795,Ekta Express,Exp,NWR,BNW,Bhiwani,KLK,Kalka,04:30:00,11:10:00,6.0,40.0,299.0,14796,0,0,0,0,0,0,SW,SEHRAMAU,NER,Uttar Pradesh,"State Highway 21, Uttar Pradesh",80.296582,28.360763
14887-Slip,Kalka - Sriganganar Express (Slip),Exp,NR,KLK,Kalka,SGNR,SHRI GANGANAGAR,21:45:00,07:10:00,9.0,25.0,433.0,,1,1,1,0,0,0,GOT,GOT,NER,Uttar Pradesh,"MDR 65W, Uttar Pradesh",78.82300099999999,28.870965
14887S,KALKA BARMER Express Slip,Exp,?,KLK,Kalka,BME,BARMER,21:45:00,20:00:00,22.0,15.0,1117.0,14888,1,1,1,0,0,0,TKHA,TAKHA,NCR,Uttar Pradesh,"Takha, Uttar Pradesh",78.76725900000001,27.135743
15041,Farrukhabad Kasganj Express,Exp,NER,FBD,FARRUKHABAD,KSJ,KASGANJ,18:30:00,20:45:00,2.0,15.0,107.0,15040,0,0,0,0,0,0,TLR,Tulsipur,NER,Uttar Pradesh,"Tulasipur, Uttar Pradesh",82.4114096783,27.5317699289
15102,Mumbai CST Chhapra Jansadharan Express,Exp,NER,CSTM,MUMBAI CST,CPR,CHHAPRA,15:35:00,05:20:00,37.0,45.0,1973.0,15101,0,0,0,0,0,0,THBN,THANA BHAWAN,NR,Uttar Pradesh,"Thana Bhawan, Uttar Pradesh",77.4104337677,29.5926632114
15267,RAXAUL - MUMBAI LTT Jan Sadharan Exp,Exp,NER,RXL,RAXAUL JN,LTT,LOKMANYA TILAK TERM,16:55:00,06:15:00,37.0,20.0,1979.0,15268,0,0,0,0,0,0,UGP,UGARPUR,NCR,Uttar Pradesh,"Ugarpur, Uttar Pradesh",79.511652,27.351481
15283,Janaki Express,Exp,ECR,SHC,SAHARSA JN,JYG,JAYNAGAR,23:15:00,05:20:00,6.0,5.0,245.0,15284,1,1,0,0,0,0,AO,AONLA,NR,Uttar Pradesh,"Dist. Bareilly, Uttar Pradesh",79.16915,28.296051
15284,Janaki Express,Exp,ECR,JYG,JAYNAGAR,SHC,SAHARSA JN,23:30:00,05:40:00,6.0,10.0,245.0,15283,1,1,0,0,0,0,DBR,DABHAURA,NCR,Uttar Pradesh,"Dabhaura, Uttar Pradesh",81.30312500000001,25.11793
15606,Guwahati InterCity Express,Exp,NFR,MXN,MARIANI JN,GHY,GUWAHATI,18:30:00,04:35:00,10.0,5.0,405.0,15605,1,1,0,0,0,0,ALY,ALLAHABAD CITY,NER,Uttar Pradesh,"Allahabad(0532-1072), Uttar Pradesh",81.829736,25.44241
15639,PURI - GUWAHATI Exp,Exp,NFR,PURI,PURI,GHY,GUWAHATI,14:05:00,22:00:00,31.0,55.0,1528.0,15640,1,1,1,0,0,0,UCR,Unchahar Junction,NR,Uttar Pradesh,"Unchahar, Uttar Pradesh",81.30014299999999,25.902315
16032,Andaman Express,Exp,SR,JAT,JAMMU TAWI,MAS,CHENNAI CENTRAL,23:45:00,10:10:00,58.0,25.0,2800.0,16031,1,1,0,0,0,0,CM,Campierganj,NER,Uttar Pradesh,"National Highway 29, Uttar Pradesh",83.267384,27.05777
16108,Mangalore Chennai Egmore Express,Exp,SR,MAQ,MANGALORE CNTL,MS,CHENNAI EGMORE,06:50:00,05:05:00,22.0,15.0,983.0,16107,1,1,1,1,0,0,BBLK,B L DASPURI,NCR,Uttar Pradesh,"B L Daspuri, Uttar Pradesh",79.36351860779999,27.3169993559
16128,GURUVAYUR - CHENNAI EGMORE Exp,Exp,SR,GUV,GURUVAYUR,MS,CHENNAI EGMORE,20:50:00,21:15:00,24.0,25.0,1100.0,16127,1,1,1,0,0,0,ASI,Arseni,NR,Uttar Pradesh,"MORADABAD, Uttar Pradesh",80.39386,27.243104
16178,Rock Fort (Malai Kottai) Express,Exp,SR,KMU,KUMBAKONAM,MS,CHENNAI EGMORE,19:55:00,05:15:00,9.0,20.0,425.0,16177,1,1,1,1,1,0,BFG,Bagthar,NCR,Uttar Pradesh,"Bandh, Uttar Pradesh",77.52218902999999,26.79623183
16322,Tiruvananthapuram Bangalore Weekly Express,Exp,SR,TVC,TRIVANDRUM CENTRAL,SBC,BANGALORE CITY JN,16:05:00,08:35:00,16.0,30.0,843.0,16321,1,1,1,0,0,0,ANDN,Anand Nagar,NER,Uttar Pradesh,"Pharenda, Uttar Pradesh",83.270698,27.103714
16529,Udyan Express,Exp,SWR,CSTM,MUMBAI CST,SBC,BANGALORE CITY JN,08:05:00,08:50:00,24.0,45.0,1153.0,16530,1,1,1,1,0,0,BJV,Bijauria,NER,Uttar Pradesh,"Bareilly, Uttar Pradesh",79.65527399999999,28.574785
16530,Udyan Express,Exp,SWR,SBC,BANGALORE CITY JN,CSTM,MUMBAI CST,20:10:00,19:50:00,23.0,40.0,1153.0,16529,1,1,1,1,0,0,BHJ,Barhaj Bazar,NER,Uttar Pradesh,"Barhaj, Uttar Pradesh",83.731497,26.283912
16518,Kannur-Yesvantpur Express,Exp,SWR,CAN,KANNUR,YPR,YESVANTPUR JN,16:45:00,07:40:00,14.0,55.0,640.0,16517,1,1,1,0,0,0,AWG,Awa Garh,NCR,Uttar Pradesh,"Awagarh, Uttar Pradesh",78.47340000000001,27.464247
16520,BANGALORE - JOLARPETTAI Exp,Exp,SWR,SBC,BANGALORE CITY JN,JTJ,JOLARPETTAI,17:30:00,20:50:00,3.0,20.0,145.0,16519,0,0,0,0,0,0,SBK,SHAHBAZ KULI,NER,Uttar Pradesh,"Shahbaz Quli, Uttar Pradesh",83.67465299999999,25.632101
16591,Hampi Express,Exp,SWR,UBL,HUBLI JN,SBC,BANGALORE CITY JN,18:00:00,06:10:00,12.0,10.0,567.0,16592,1,1,1,1,0,0,BDHP,BHUDPUR,NR,Uttar Pradesh,"State Highway 57, Uttar Pradesh",77.29116829590001,29.218093878
17001,Sainagar Shirdi Secunderabad Express,Exp,SCR,SNSI,SAINAGAR SHIRDI,SC,SECUNDERABAD JN,17:10:00,09:20:00,16.0,10.0,776.0,17002,1,1,1,0,0,0,BHI,BAHERI,NER,Uttar Pradesh,"SH 37, Uttar Pradesh",79.5003221,28.777391
16611,Tuticorin Coimbatore Link Express,Exp,SR,TN,TUTICORIN,CBE,COIMBATORE JN,21:30:00,07:30:00,10.0,0.0,465.0,16612,1,1,0,0,0,0,BJO,BIJNOR,NR,Uttar Pradesh,"Bijnor, Uttar Pradesh",78.14680469999999,29.3856298
16614,COIMBATORE - RAJKOT Exp,Exp,SR,CBE,COIMBATORE JN,RJT,RAJKOT JN,23:45:00,20:05:00,44.0,20.0,2237.0,16613,1,1,1,0,0,0,BLQR,BILASPUR ROAD,NER,Uttar Pradesh,"Rampur, Uttar Pradesh",79.254263,28.865601
17014,Hyderabad-Pune Express,Exp,SCR,HYB,HYDERABAD DECCAN,PUNE,PUNE JN,22:45:00,13:15:00,14.0,30.0,649.0,17013,1,1,1,0,0,0,BKT,BAKSHI KA TALAB,NER,Uttar Pradesh,"Bakshi Ka Talab, Uttar Pradesh",80.922331,26.983452
17032,Hyderabad-Mumbai Express,Exp,SCR,HYB,HYDERABAD DECCAN,CSTM,MUMBAI CST,20:40:00,13:05:00,16.0,25.0,790.0,17031,1,1,1,1,0,0,BFPA,Bhopatpur,NER,Uttar Pradesh,"Bhopatpur, Uttar Pradesh",79.8051375,28.3754640974
17213,Narasapur-Nagarsol Express,Exp,SCR,NS,Narasapur,NSL,NAGARSOL,10:30:00,08:30:00,22.0,0.0,1086.0,17214,1,1,1,0,0,0,BADK,BARKA,NR,Uttar Pradesh,"State Highway 57, Uttar Pradesh",77.2733021582,29.0725646906
17225,Amaravati Express,Exp,SCR,BZA,VIJAYAWADA JN,UBL,HUBLI JN,18:55:00,09:40:00,14.0,45.0,693.0,17226,1,1,1,0,0,0,BMHR,BAMANHERI,NR,Uttar Pradesh,"Muzaffarnagar, Uttar Pradesh",77.70639,29.514762
17239,Simhadri Express,Exp,SCR,GNT,GUNTUR JN,VSKP,VISHAKAPATNAM,08:00:00,17:50:00,9.0,50.0,383.0,17240,0,0,0,0,0,1,BJ,BAHJOI,NR,Uttar Pradesh,"Bahjoi, Uttar Pradesh",78.6315064,28.4014996
17312,VASCO DA GAMA - CHENNAI CENT Exp,Exp,SWR,VSG,VASCO DA GAMA,MAS,CHENNAI CENTRAL,14:30:00,11:55:00,21.0,25.0,1070.0,17311,1,1,1,0,0,0,BNSP,BANSAPAHAR,WCR,Uttar Pradesh,"Uttar Pradesh, Uttar Pradesh",81.050022,25.055505
17314,HUBLI - CHENNAI CENT Weekly Exp,Exp,SWR,UBL,HUBLI JN,MAS,CHENNAI CENTRAL,20:20:00,11:55:00,15.0,35.0,834.0,17313,1,1,1,0,0,0,BLP,Balrampur,NER,Uttar Pradesh,"Balrampur, Uttar Pradesh",82.16066989870001,27.4158206073
17415,Haripriya Express,Exp,SCR,TPTY,TIRUPATI MAIN,KOP,C SHAHU M RAJ KOLHAPUR TERM,20:30:00,16:35:00,20.0,5.0,903.0,17416,1,1,1,0,0,0,BIC,Bichia,NER,Uttar Pradesh,"Bichia, Uttar Pradesh",81.2720808,28.1830705
18192,Utsarg Express,Exp,SER,CPA,KANPUR ANWARGANJ,CPR,CHHAPRA,16:25:00,08:35:00,16.0,10.0,549.0,18191,1,1,0,0,0,0,BRY,BAREILLY,NER,Uttar Pradesh,"Bareilly, Uttar Pradesh",79.4109744,28.3372843
17609,PATNA - PURNA Exp,Exp,SCR,PNBE,PATNA JN,PAU,PURNA JN,23:10:00,07:05:00,31.0,55.0,1819.0,17610,1,1,1,0,0,0,BPRA,BARIPURA,NCR,Uttar Pradesh,"National Highway 86, Uttar Pradesh",79.943488,25.340728
18302-Slip,Sambalpur Express Slip,Exp,?,RGDA,RAYAGADA,PURI,PURI,14:30:00,07:15:00,16.0,45.0,695.0,,1,0,0,0,0,0,CKYD,CHAKRA ROAD,NER,Uttar Pradesh,"Chakara Road Halt, Uttar Pradesh",83.672178,26.001213
12610,BANGALORE - CHENNAI CENT SF Intercity Exp,SF,SWR,SBC,BANGALORE CITY JN,MAS,CHENNAI CENTRAL,08:00:00,14:30:00,6.0,30.0,362.0,12609,0,0,0,0,0,1,BNQL,BHANKALA HALT,NR,Uttar Pradesh,"State Highway 57, Uttar Pradesh",77.4743493237,29.8455908377
16526,BANGALORE - KANNIYAKUMARI Island Exp,Exp,SWR,SBC,BANGALORE CITY JN,CAPE,KANYAKUMARI,21:40:00,19:00:00,21.0,20.0,944.0,16525,1,1,1,0,0,0,BRLI,Barauli,NCR,Uttar Pradesh,"National Highway 11B, Uttar Pradesh",77.424988,26.552056
18420,Darbhanga-Puri Weekly Express,Exp,ECoR,DBG,DARBHANGA JN,PURI,PURI,07:00:00,03:20:00,20.0,20.0,942.0,18419,1,1,1,0,0,0,KAT,KHATAULI,NR,Uttar Pradesh,"Khatauli, Uttar Pradesh",77.736988,29.273712
18426,DURG - PURI Exp,Exp,ECoR,DURG,DURG,PURI,PURI,16:25:00,09:15:00,16.0,50.0,786.0,18425,1,1,1,0,0,0,PQY,PABLI KHAS,NR,Uttar Pradesh,"Meerut, Uttar Pradesh",77.698335,29.05601
18452-Slip,Tapaswini Express Slip,Exp,?,PURI,PURI,RGDA,RAYAGADA,20:40:00,13:20:00,16.0,40.0,696.0,18451,1,0,0,0,0,0,GUH,GULDHAR,NR,Uttar Pradesh,"Ghaziabad, Uttar Pradesh",77.455792,28.703752
18510,Nanded-Visakhapatnam Express,Exp,ECoR,NED,HUZUR SAHIB NANDED,VSKP,VISHAKAPATNAM,16:15:00,10:15:00,18.0,0.0,973.0,18509,1,1,1,0,0,0,BSC,Bulandshahr,NR,Uttar Pradesh,"Bulandshahr, Uttar Pradesh",77.8482415,28.3919187
18601,Rourkela-JammuTawi Express,Exp,SER,ROU,ROURKELA,JAT,JAMMU TAWI,11:15:00,13:40:00,50.0,25.0,2158.0,,1,1,1,0,0,0,BTG,BASHARATGANJ,NR,Uttar Pradesh,"Bareilly, Uttar Pradesh",79.2851956,28.288009
19054,MUZAFFARPUR - SURAT Exp,Exp,WR,MFP,MUZAFFARPUR JN,ST,SURAT,19:30:00,17:10:00,45.0,40.0,2136.0,19053,1,1,0,0,0,0,BRG,BARGARH,NCR,Uttar Pradesh,"Kaushambi, Uttar Pradesh",81.4500584753,25.164270416300003
19263,Porbandar-Delhi Sarai Rohilla (Biweekly) Express,Exp,WR,PBR,PORBANDAR,DEE,DELHI SARAI ROHILLA,15:05:00,19:35:00,28.0,30.0,1392.0,19264,1,1,1,0,0,0,BYHA,BARYA RAM,NR,Uttar Pradesh,"THAKUR Rd, Uttar Pradesh",82.22659200000001,25.566931
19130,Ahmedabad Baroda Express,Exp,WR,ADI,AHMEDABAD JN,BRC,VADODARA JN,14:40:00,17:15:00,2.0,35.0,100.0,19129,0,0,0,0,0,0,BXM,BELRAYAN,NER,Uttar Pradesh,"Tikapur, Uttar Pradesh",80.915268,28.379381
19801,Kota-Indore Intercity Express,Exp,WCR,KOTA,KOTA JN,INDB,INDORE JN BG,06:30:00,14:20:00,7.0,50.0,433.0,19802,0,0,0,0,0,0,CH,CHANDAUSI JN,NR,Uttar Pradesh,"Chandausi, Uttar Pradesh",78.780268,28.458626
19569,Okha Varanasi Express,Exp,WR,OKHA,OKHA,BSB,VARANASI JN,13:45:00,05:00:00,39.0,15.0,2041.0,19570,1,1,1,0,0,0,CPJ,KAPTANGANJ JN,NER,Uttar Pradesh,"Captainganj, Uttar Pradesh",83.69990700000001,26.926388
22853,Kolkata Shalimar-Visakhapatnam Superfast express,SF,SER,SHM,KOLKATA SHALIMAR,VSKP,VISHAKAPATNAM,18:15:00,08:20:00,14.0,5.0,880.0,22854,1,1,1,0,0,0,DEO,DEOKALI,NER,Uttar Pradesh,"State Highway 90, Uttar Pradesh",80.705156,27.977317000000003
28242,Chirmiri Durg Express Cum Pass,Exp,SECR,CHRM,Chirmiri,DURG,DURG,20:05:00,09:10:00,13.0,5.0,381.0,,1,0,0,0,0,0,DLR,DULLAHAPUR,NER,Uttar Pradesh,"SH 67, Uttar Pradesh",83.423264,25.799898
18304,PURI - SAMBALPUR Intercity Exp,Exp,ECoR,PURI,PURI,SBP,SAMBALPUR,15:45:00,22:15:00,6.0,30.0,341.0,18303,0,0,0,0,0,1,BQF,BARAHMUAFI,WCR,Uttar Pradesh,"Uttar Pradesh, Uttar Pradesh",81.009932,25.039892
38444,Panskura Howrah EMU,MEMU,?,PKU,PANSKURA,HWH,HOWRAH JN,10:10:00,12:00:00,1.0,50.0,71.0,38445,0,0,0,0,1,0,FAP,FAKHARPUR HALT,NR,Uttar Pradesh,"Fakharpur, Uttar Pradesh",77.293521,28.846965
38448,Panskura Howrah EMU,MEMU,?,PKU,PANSKURA,HWH,HOWRAH JN,11:20:00,13:15:00,1.0,55.0,71.0,38449,0,0,0,0,1,0,GZT,GHAZIPUR GHAT,NER,Uttar Pradesh,"Ghazipur, Uttar Pradesh",83.60480199999999,25.60028
38846,Kolaghat-Howrah EMU,MEMU,?,KIG,KOLAGHAT GOODS,HWH,HOWRAH JN,11:10:00,12:45:00,1.0,35.0,55.0,,0,0,0,0,0,0,AHM,AHIMANPUR,NER,Uttar Pradesh,"St Ravidas Nagar, Uttar Pradesh",82.511544,25.252404
40501,Chennai Beach Chengulpet EMU,MEMU,SR,MSB,CHENNAI BEACH,CGL,CHENGALPATTU,03:55:00,05:40:00,1.0,45.0,63.0,,0,0,0,0,0,0,DRGJ,DARAGANJ,NER,Uttar Pradesh,"Allahabad, Uttar Pradesh",81.87998999999999,25.44265
40701,Chennai Beach Tirumalpur EMU,MEMU,SR,MSB,CHENNAI BEACH,TMLP,TIRUMALPUR,07:05:00,10:05:00,3.0,0.0,112.0,,0,0,0,0,0,0,DXH,DUHAI,NR,Uttar Pradesh,"Uttar Pradesh, Uttar Pradesh",77.480363,28.730283
41001,Chennai Beach Velachery EMU,MEMU,SR,MSB,CHENNAI BEACH,VLCY,Velachery,04:15:00,04:55:00,0.0,40.0,18.0,,0,0,0,0,0,0,DWJ,DWARKAGANJ,NR,Uttar Pradesh,"Sultanpur, Uttar Pradesh",82.109076,26.316418
41053,Chennai Beach Velachery EMU,MEMU,SR,MSB,CHENNAI BEACH,VLCY,Velachery,09:55:00,10:35:00,0.0,40.0,18.0,,0,0,0,0,0,0,BHGP,Bhagirathpur,NER,Uttar Pradesh,"National Highway 29, Uttar Pradesh",83.38771,27.326628
55321,MORADABAD  - RAMNAGAR PASSENGER,Pass,NER,MB,MORADABAD,RMR,RAMNAGAR,07:10:00,09:35:00,2.0,25.0,77.0,55322,0,0,0,0,0,0,NDJ,NANDGANJ,NER,Uttar Pradesh,"National Highway 29, Uttar Pradesh",83.396867,25.54457
40516,Chengulpet Chennai Beach Semi Fast EMU (12 Car),MEMU,SR,CGL,CHENGALPATTU,MSB,CHENNAI BEACH,07:25:00,08:57:00,1.0,32.0,59.0,40515,0,0,0,0,0,0,DYU,DIYURI,NER,Uttar Pradesh,"Diyuri, Uttar Pradesh",79.87601000000001,28.603253
40521,Chennai Beach Chengulpet EMU,MEMU,SR,MSB,CHENNAI BEACH,CGL,CHENGALPATTU,08:56:00,10:40:00,1.0,44.0,59.0,40520,0,0,0,0,0,0,DYP,Daryapur,NR,Uttar Pradesh,"National Highway 24B, Uttar Pradesh",81.248588,26.182799
40524,Chengulpet Chennai Beach EMU,MEMU,SR,CGL,CHENGALPATTU,MSB,CHENNAI BEACH,08:35:00,10:23:00,1.0,48.0,59.0,40523,0,0,0,0,0,0,CBN,CHIT BARAGAON,NER,Uttar Pradesh,"Chitbaragaon, Uttar Pradesh",84.00154,25.744109
40706,Tirumalpur Chennai Beach Fast EMU,MEMU,SR,TMLP,TIRUMALPUR,MSB,CHENNAI BEACH,07:50:00,10:25:00,2.0,35.0,108.0,40707,0,0,0,0,0,0,FRDH,Faridaha Halt,NER,Uttar Pradesh,"Aunrihar, Uttar Pradesh",83.12602199999999,25.557959
41109,Chennai Beach Velachery EMU,Pass,SR,MSB,CHENNAI BEACH,VLCY,Velachery,18:25:00,19:05:00,0.0,40.0,18.0,,0,0,0,0,0,0,GDHA,GODHA,NR,Uttar Pradesh,"Godha, Uttar Pradesh",78.141225,28.005897
41112,Velachery Chennai Beach Passenger,Pass,?,VLCY,Velachery,MSB,CHENNAI BEACH,19:00:00,19:40:00,0.0,40.0,0.0,41111,0,0,0,0,0,0,NGL,NANGAL,NR,Uttar Pradesh,"Saharanpur, Uttar Pradesh",77.62227,29.832554
41125,Chennai Beach Velachery EMU,MEMU,?,MSB,CHENNAI BEACH,VLCY,Velachery,20:20:00,21:00:00,0.0,40.0,18.0,,0,0,0,0,0,0,MOZ,MUZAFFARNAGAR,NR,Uttar Pradesh,"MuzaffarNagar, Uttar Pradesh",77.707807,29.468689
41127,Chennai Beach Velachery EMU,Pass,SR,MSB,CHENNAI BEACH,VLCY,Velachery,20:45:00,21:25:00,0.0,40.0,18.0,,0,0,0,0,0,0,DRLA,DAURALA,NR,Uttar Pradesh,"Meerut, Uttar Pradesh",77.70616000000001,29.114015
41129,Chennai Beach Velachery EMU,MEMU,?,MSB,CHENNAI BEACH,VLCY,Velachery,21:10:00,21:50:00,0.0,40.0,18.0,,0,0,0,0,0,0,MDNR,MODINAGAR,NR,Uttar Pradesh,"Ghaziabad, Uttar Pradesh",77.571716,28.827907
42414,Spe-Mas Emu Local,MEMU,SR,SPE,SULLURUPETA,MAS,CHENNAI CENTRAL,15:15:00,17:40:00,2.0,25.0,83.0,,0,0,0,0,0,0,GAW,Gainjahwa,NER,Uttar Pradesh,"MDR 10E, Uttar Pradesh",82.24506478820001,27.4546557588
42420,Sullurpeta Chennai EMU,MEMU,SR,SPE,SULLURUPETA,MAS,CHENNAI CENTRAL,20:20:00,22:25:00,2.0,5.0,83.0,,0,0,0,0,1,0,GH,GHUGHULI,NER,Uttar Pradesh,"Ghughli Bazar, Uttar Pradesh",83.7137745453,27.0539516142
42422,Spe-Mas Emu Local,MEMU,SR,SPE,SULLURUPETA,MAS,CHENNAI CENTRAL,21:40:00,23:45:00,2.0,5.0,83.0,,0,0,0,0,1,0,SJGH,SARAI JAGDISH,NER,Uttar Pradesh,"National Highway 2, Uttar Pradesh",82.365134,25.30009
43401,Chennai Central Arakkonam Fast,MEMU,SR,MAS,CHENNAI CENTRAL,AJJ,ARAKKONAM,05:30:00,06:55:00,1.0,25.0,68.0,,0,0,0,0,0,0,GCT,GHAZIPUR CITY,NER,Uttar Pradesh,"Ghazipur, Uttar Pradesh",83.568045,25.583144
47130,Lingampalli Hyderabad MMTS,Hyd,SCR,LPI,LINGAMPALLI,HYB,HYDERABAD DECCAN,08:10:00,08:50:00,0.0,40.0,25.0,,0,0,0,0,0,0,GTRA,GOTRA HALT,NR,Uttar Pradesh,"Gotra, Uttar Pradesh",77.30096,28.807889
47163,Falaknuma Lingampalli MMTS,Hyd,SCR,FM,KACHEGUDA FALAKNUMA,LPI,LINGAMPALLI,17:00:00,18:15:00,1.0,15.0,37.0,,0,0,0,0,0,0,GZN,NEW GHAZIABAD,NR,Uttar Pradesh,"Ghaziabad, Uttar Pradesh",77.43800800000001,28.674404
47125,Hyderabad Lingampalli MMTS,Hyd,SCR,HYB,HYDERABAD DECCAN,LPI,LINGAMPALLI,21:50:00,22:30:00,0.0,40.0,25.0,47126,0,0,0,0,0,0,HLDR,HALDAUR,NR,Uttar Pradesh,"State Highway 76, Uttar Pradesh",78.275060462,29.2900815531
47146,Lingampalli Hyderabad MMTS,Hyd,SCR,LPI,LINGAMPALLI,HYB,HYDERABAD DECCAN,20:50:00,21:30:00,0.0,40.0,25.0,,0,0,0,0,0,0,GTF,GUMTHAL,NR,Uttar Pradesh,"Raja Ka Sahaspur, Uttar Pradesh",78.757645,28.484002
47183,Lingampalli Falaknuma MMTS,Hyd,SCR,LPI,LINGAMPALLI,FM,KACHEGUDA FALAKNUMA,14:30:00,15:45:00,1.0,15.0,37.0,,0,0,0,0,0,0,HRF,Hathras Kila,NCR,Uttar Pradesh,"Hathras(05722-242803), Uttar Pradesh",78.05801798589528,27.594876304064115
47187,Lingampalli Falaknuma MMTS,Hyd,SCR,LPI,LINGAMPALLI,FM,KACHEGUDA FALAKNUMA,17:10:00,18:30:00,1.0,20.0,37.0,,0,0,0,0,0,0,GTM,Ghatampur,NCR,Uttar Pradesh,"Ghatampur, Uttar Pradesh",80.174712,26.151304
47196,Secunderabad Hyderabad MMTS,Hyd,SCR,SC,SECUNDERABAD JN,HYB,HYDERABAD DECCAN,05:10:00,05:35:00,0.0,25.0,8.0,,0,0,0,0,0,0,IZN,IZZATNAGAR,NER,Uttar Pradesh,"Bareilly, Uttar Pradesh",79.421171,28.388266
47206,HYB Falaknuma Local,Hyd,SCR,HYB,HYDERABAD DECCAN,FM,KACHEGUDA FALAKNUMA,05:40:00,06:55:00,1.0,15.0,22.0,,0,0,0,0,0,0,HGJ,HARDUAGANJ,NCR,Uttar Pradesh,"Aligarh, Uttar Pradesh",78.1280258472,27.9904756211
50104,Ratnagiri Dadar Passenger,Pass,KR,RN,RATNAGIRI,DR,MUMBAI DADAR CENTRAL,05:30:00,14:20:00,8.0,50.0,422.0,50103,0,0,0,0,0,0,HIND,HIND,NR,Uttar Pradesh,"State Highway 57, Uttar Pradesh",77.3634743811,29.5303888301
51147,Badnera Amravati Passenger,Pass,CR,BD,BADNERA JN,AMI,Amravati,19:50:00,20:05:00,0.0,15.0,6.0,51146,0,0,0,0,0,0,AILM,AILAM,NR,Uttar Pradesh,"State Highway 57, Uttar Pradesh",77.2915349414,29.2719947091
51187,BHUSAVAL - KATNI Passenger,Pass,CR,BSL,BHUSAVAL JN,KTE,KATNI,09:30:00,03:25:00,17.0,55.0,657.0,51188,1,0,0,0,0,0,JGG,JANGIGANJ,NER,Uttar Pradesh,"Allahabad, Uttar Pradesh",82.35067155089999,25.3053173094
51195,Wardha Balharshah Passenger,Pass,CR,WR,WARDHA JN,BPQ,BALHARSHAH,07:15:00,10:30:00,3.0,15.0,132.0,,0,0,0,0,0,0,HZR,Hafizpur,NR,Uttar Pradesh,"Hafizpur, Uttar Pradesh",77.785833,28.671653
51259,Wardha Nagpur Passenger,Pass,WCR,WR,WARDHA JN,NGP,NAGPUR,18:08:00,20:15:00,2.0,7.0,78.0,51260,0,0,0,0,0,0,JRJ,JARGAON,NR,Uttar Pradesh,"Chandausi, Uttar Pradesh",78.768653,28.560472
51323,Daund Baramati Shuttle,Pass,CR,DD,DAUND JN,BRMT,Baramati,05:25:00,06:45:00,1.0,20.0,44.0,,0,0,0,0,0,0,KEG,KARENGI,NR,Uttar Pradesh,"Karengi, Uttar Pradesh",79.041353,28.346844
51348,Baramati Daund Passenger,Pass,CR,BRMT,Baramati,DD,DAUND JN,22:10:00,23:30:00,1.0,20.0,43.0,,0,0,0,0,0,0,JKN,JAKHANIAN,NER,Uttar Pradesh,"State Highway 67, Uttar Pradesh",83.369563,25.740942
51405,Miraj- Castle Rock Passenger,Pass,CR,MRJ,MIRAJ JN,CLR,CASTLE ROCK,17:25:00,23:15:00,5.0,50.0,213.0,51406,0,0,0,0,0,0,KB,KHAIRATABAD,NER,Uttar Pradesh,"Sitapur National Highway 24, Uttar Pradesh",80.740844,27.521338
51408,Kolhapur Miraj Passenger,Pass,CR,KOP,C SHAHU M RAJ KOLHAPUR TERM,MRJ,MIRAJ JN,21:30:00,22:55:00,1.0,25.0,47.0,51407,0,0,0,0,0,0,JKP,JHAREKAPUR,NER,Uttar Pradesh,"Sitapur, Uttar Pradesh",80.728934,27.680642
51411,Bellary-Dharwar Passenger,Pass,CR,BAY,BELLARY JN,DWR,DHARWAR,14:20:00,20:35:00,6.0,15.0,229.0,,0,0,0,0,0,0,JSB,Yamuna South Bank,NCR,Uttar Pradesh,"Uttar Pradesh, Uttar Pradesh",80.226651,25.902334
51424,Manmad Igatpuri Shuttle,Pass,CR,MMR,MANMAD JN,IGP,IGATPURI,14:30:00,17:40:00,3.0,10.0,123.0,51423,0,0,0,0,0,0,KCO,Kachhia Bridge,NER,Uttar Pradesh,"State Highway 33, Uttar Pradesh",78.863805,27.944171
51324,Baramati-Daund- Pune Passenger,Pass,CR,BRMT,Baramati,PUNE,PUNE JN,07:05:00,10:15:00,3.0,10.0,119.0,,0,0,0,0,0,0,KBE,KUREBHAR,NR,Uttar Pradesh,"MDR 66E, Uttar Pradesh",82.111598,26.409469
51434,Pandharpur Nizamabad Passenger,Pass,CR,PVR,PANDHARPUR,NZB,NIZAMABAD,06:00:00,23:05:00,17.0,5.0,533.0,51433,0,0,0,0,0,0,JUA,JARAUNA,NR,Uttar Pradesh,"Alamganj, Uttar Pradesh",82.399136,25.55713
51450,Solapur Pune Passenger,Pass,CR,SUR,SOLAPUR JN,PUNE,PUNE JN,23:00:00,06:15:00,7.0,15.0,264.0,51449,1,0,0,0,0,0,KBR,KABRAI,NCR,Uttar Pradesh,"National Highway 76, Uttar Pradesh",80.0382402954,25.3851912181
51611,KOTA - BINA Passenger,Pass,WCR,KOTA,KOTA JN,BINA,BINA JN,08:05:00,17:20:00,9.0,15.0,303.0,51612,0,0,0,0,0,0,KALI,Kaili,NR,Uttar Pradesh,"State Highway 18, Uttar Pradesh",77.75277,28.785394
51675,Katni Chopan Fast Passenger,Pass,CR,KTE,KATNI,CPU,CHOPAN,20:45:00,06:05:00,9.0,20.0,326.0,51676,0,0,0,0,0,0,KARH,Kakraha Rest House,NER,Uttar Pradesh,"State Highway 26, Uttar Pradesh",81.420529,27.998447
51685,Khandwa Bir Shuttle,Pass,CR,KNW,KHANDWA,BIR,Bir,13:10:00,14:00:00,0.0,50.0,33.0,51684,0,0,0,0,0,0,KHNM,Kunda Harnamganj,NR,Uttar Pradesh,"Kunda, Uttar Pradesh",81.509547,25.714175
51818,BANDIKUI AGRA PASS,Pass,NCR,BKI,BANDIKUI JN,AF,AGRA FORT,06:10:00,09:55:00,3.0,45.0,150.0,51817,0,0,0,0,0,0,KLB,KIRAOLI,NCR,Uttar Pradesh,"Kiraoli, Uttar Pradesh",77.78581199999999,27.133898
51821,JHANSI - KHUJURAHO Passenger,Pass,NCR,JHS,JHANSI JN,KURJ,KHAJURAHO,07:10:00,11:55:00,4.0,45.0,201.0,51822,0,0,0,0,0,0,KJLU,KHARI JHALU,NR,Uttar Pradesh,"Jhalu, Uttar Pradesh",78.21890400000001,29.331864
51901,Agra Delhi Passenger,Pass,NCR,AGC,AGRA CANTT,DLI,OLD DELHI,08:02:00,15:45:00,7.0,43.0,197.0,51902,0,0,0,0,0,0,KJY,Khurja City,NR,Uttar Pradesh,"Sikri, Uttar Pradesh",77.84116100000001,28.252454
52041,Miyagam Dabhoi Mix Passenger,Pass,WR,MYGL,MIYAGAM KARJAN JUNCTION NG,DB,Dabhoi Junction,09:50:00,11:30:00,1.0,40.0,32.0,52042,0,0,0,0,0,0,KS,KHETA SARAI,NR,Uttar Pradesh,"Nawab Yousuf Rd, Uttar Pradesh",82.6886636169,25.9657745832
52138,Achalpur Murtajapur Passenger,Pass,CR,ELP,Achalpur,MZR,MURTAJAPUR,11:15:00,14:45:00,3.0,30.0,76.0,52137,0,0,0,0,0,0,KZS,KUAKHERA HALT,NR,Uttar Pradesh,"Chandausi, Uttar Pradesh",78.76651700000001,28.546471
52183,Bari Mohari Sirmuttra Passenger,Pass,NCR,BARI,Bari,SRMT,Sirmuttra,14:45:00,16:25:00,1.0,40.0,38.0,,0,0,0,0,0,0,KYBR,Khairatiya Bandh Road,NER,Uttar Pradesh,"Khairatiya, Uttar Pradesh",81.081765,28.272292
52217,Kasganj Bareilly Passenger,Pass,NER,KSJF,Kasganj Mg,BRY,BAREILLY,21:15:00,00:20:00,3.0,5.0,104.0,52218,0,0,0,0,0,0,LOG,LOHGARA,NCR,Uttar Pradesh,"Lohgara, Uttar Pradesh",81.73019000000001,25.25045
52233,Pilibhit Shahjahanpur Passenger,Pass,NER,PBE,PILIBHIT JN,SZP,Shahjahanpur,10:15:00,12:55:00,2.0,40.0,84.0,52234,0,0,0,0,0,0,LMN,Lachhmanpur,NR,Uttar Pradesh,"Unchahar, Uttar Pradesh",81.25726300000001,26.050472
52263,Gonda Nepalganj Passenger,Pass,NER,GD,GONDA JN,NPR,Nepalganj Road,13:20:00,17:05:00,3.0,45.0,114.0,52264,0,0,0,0,0,0,MEM,MAU AIMMA,NR,Uttar Pradesh,"Allahabad, Uttar Pradesh",81.91377,25.698324
52264,Nepalganj Gonda Passenger,Pass,NER,NPR,Nepalganj Road,GD,GONDA JN,15:00:00,18:50:00,3.0,50.0,114.0,52263,0,0,0,0,0,0,MEQ,MALETHU KANAK,NR,Uttar Pradesh,"Bikapur, Uttar Pradesh",82.124891,26.60377
52265,Gonda Nepalganj Passenger,Pass,NER,GD,GONDA JN,NPR,Nepalganj Road,18:15:00,21:50:00,3.0,35.0,114.0,52264,0,0,0,0,0,0,MBS,MADHOSINGH,NER,Uttar Pradesh,"SH 5, Uttar Pradesh",82.552278,25.249931
52326,Saharsa-Forbesganj Passenger,Pass,?,SHC,SAHARSA JN,FBG,FORBESGANJ,13:45:00,20:40:00,6.0,55.0,112.0,52327,0,0,0,0,0,0,MIQ,MIRHAKUR,NCR,Uttar Pradesh,"Idgah Agra, Uttar Pradesh",77.8660122473,27.151203539700003
52328,Saharsa-Forbesganj Passenger,Pass,?,SHC,SAHARSA JN,FBG,FORBESGANJ,16:00:00,23:40:00,7.0,40.0,112.0,52329,0,0,0,0,0,0,MKP,MANIKPUR JN,NCR,Uttar Pradesh,"Manikpur, Uttar Pradesh",81.09365700000001,25.063492
52504,Narkatiaganj Bhikhna Thori Passenger,Pass,ECR,NKE,NARKATIAGANJ JN,BKF,Bhikhna Thori,09:30:00,11:00:00,1.0,30.0,0.0,52503,0,0,0,0,0,0,MGRR,MAGARPUR,NCR,Uttar Pradesh,"Mau Ranipur, Uttar Pradesh",78.858785,25.322705000000003
52506,Narkatiaganj Bhikhna Thori Passenger,Pass,ECR,NKE,NARKATIAGANJ JN,BKF,Bhikhna Thori,16:00:00,17:35:00,1.0,35.0,0.0,52505,0,0,0,0,0,0,MIH,MIHRAWAN,NR,Uttar Pradesh,"Nawab Yousuf Rd, Uttar Pradesh",82.694333,25.871178
52521,Sakri Laukaha Bazar Passenger,Pass,?,SKI,SAKRI JN,JJP,Jhanjharpur,22:30:00,23:30:00,1.0,0.0,19.0,52520,0,0,0,0,0,0,MIW,Mighauna,NER,Uttar Pradesh,"Mighauna, Uttar Pradesh",79.826515,28.24322
52537,Purnia Bihariganj Passenger,Pass,?,BNKI,Banmankhi Junction,BHGJ,Bihariganj,13:40:00,15:40:00,2.0,0.0,27.0,52538,0,0,0,0,0,0,MNDR,MANDI DHANAURA,NR,Uttar Pradesh,"Jyotiba Phule Nagar, Uttar Pradesh",78.26149799999999,28.953119
52540,Darjeeling Kurseong Toy Train,Pass,?,DJ,Darjeeling,KGN,Kurseong,09:15:00,11:55:00,2.0,40.0,31.0,52541,0,0,0,0,1,0,MNQ,MAINPURI,NCR,Uttar Pradesh,"Mainpuri, Uttar Pradesh",79.034774,27.216507
18005,HOWRAH - JAGDALPUR Samaleshwari Exp,Exp,SER,HWH,HOWRAH JN,JDB,JAGDALPUR,21:35:00,20:25:00,22.0,50.0,1057.0,18006,1,1,1,1,0,0,MNZ,MANANI,NR,Uttar Pradesh,"State Highway 57, Uttar Pradesh",77.498609,29.884915
52556,Budhma Banmankhi Passenger,Pass,ECR,BDMA,Budhma,BNKI,Banmankhi Junction,22:10:00,00:05:00,1.0,55.0,34.0,52557,0,0,0,0,0,0,MLN,MAILANI,NER,Uttar Pradesh,"Lakhimpur Kheri, Uttar Pradesh",80.347318,28.284349
52903,Mahesana Ahmedabad Passenger,Pass,WR,MSH,MAHESANA JN,ADI,AHMEDABAD JN,05:20:00,07:50:00,2.0,30.0,69.0,52904,0,0,0,0,0,0,MSP,MANSURPUR,NR,Uttar Pradesh,"Muzaffarnagar, Uttar Pradesh",77.719182,29.355377
52907,Mahesana Ahmedabad Passenger,Pass,WR,MSH,MAHESANA JN,ADI,AHMEDABAD JN,12:10:00,14:55:00,2.0,45.0,69.0,52906,0,0,0,0,0,0,MUT,MEERUT CANT,NR,Uttar Pradesh,"Meerut, Uttar Pradesh",77.686937,29.015997
52909,Mahesana Ahmedabad Passenger,Pass,WR,MSH,MAHESANA JN,ADI,AHMEDABAD JN,14:30:00,17:05:00,2.0,35.0,69.0,52908,0,0,0,0,0,0,MTC,MEERUT CITY,NR,Uttar Pradesh,"Meerut, Uttar Pradesh",77.675106,28.97761
52910,Ahmedabad Mahesana Fast Passenger,Pass,WR,ADI,AHMEDABAD JN,MSH,MAHESANA JN,04:55:00,07:40:00,2.0,45.0,69.0,52909,0,0,0,0,0,0,MUD,MURADNAGAR,NR,Uttar Pradesh,"Ghaziabad, Uttar Pradesh",77.506774,28.759017
52911,Ranuj Ahmedabad Fast Passenger,Pass,WR,RUJ,RANUJ,ADI,AHMEDABAD JN,06:15:00,10:30:00,4.0,15.0,129.0,52912,0,0,0,0,0,0,MSRP,MURHESI RAMPUR,WCR,Uttar Pradesh,"SH 33, Uttar Pradesh",77.62741799999999,27.412426
52924,Ahmedabad Khed Brahma Passenger,Pass,WR,ADI,AHMEDABAD JN,KDBM,Khed Brahma,08:10:00,13:35:00,5.0,25.0,188.0,52925,0,0,0,0,0,0,MT,Matera,NER,Uttar Pradesh,"Bahraich, Uttar Pradesh",81.55344699999999,27.784934
52929,Veraval Dhasa Passenger,Pass,WR,VRL,VERAVAL,DAS,DHASA JN,09:45:00,16:45:00,7.0,0.0,190.0,52930,0,0,0,0,0,0,MOM,Maman,NR,Uttar Pradesh,"National Highway 91, Uttar Pradesh",77.86108700000001,28.330372
52932,Dhasa Jetalsar Passenger,Pass,WR,DAS,DHASA JN,JLR,JETALSAR JN,17:30:00,19:55:00,2.0,25.0,105.0,52931,0,0,0,0,0,0,MPUE,MAINPURI KACHRI,NCR,Uttar Pradesh,"Mainpuri Kachri, Uttar Pradesh",79.06563200000001,27.227142
52933,Veraval Dhasa Passenger,Pass,WR,VRL,VERAVAL,DAS,DHASA JN,13:55:00,20:20:00,6.0,25.0,190.0,,0,0,0,0,0,0,MUZ,MOHIUDDINPUR,NR,Uttar Pradesh,"Meerut, Uttar Pradesh",77.621531,28.885405
52950,Delvada Veraval Passenger,Pass,WR,DVA,Delvada,VRL,VERAVAL,08:05:00,11:20:00,3.0,15.0,94.0,52949,0,0,0,0,0,0,MXY,MAHUARIYA,ECR,Uttar Pradesh,"Sonebhadra, Uttar Pradesh",83.3105186481,24.2277400211
52965,Ratlam Mhow Fast Passenger,Pass,WR,RTM,RATLAM JN,MHOW,Mhow,17:00:00,21:15:00,4.0,15.0,147.0,52966,1,0,0,0,0,0,MUH,Murthiha,NER,Uttar Pradesh,"State Highway 26, Uttar Pradesh",81.37814700000001,28.030462
53018,Azimganj Katwa Passenger,Pass,ER,AZ,AZIMGANJ JN,KWAE,KATWA,15:15:00,17:45:00,2.0,30.0,73.0,53017,0,0,0,0,0,0,NSU,NISUI,NR,Uttar Pradesh,"Aonla- Bareilly Link Rd, Uttar Pradesh",79.236446,28.290931
53061,Barddhaman-Hatia Passenger,Pass,ER,BWN,BARDDHAMAN JN,HTE,HATIA,06:15:00,17:40:00,11.0,25.0,345.0,53062,0,0,0,0,0,0,NTG,NURSRATABAD KHARKHAR,NR,Uttar Pradesh,"State Highway 57, Uttar Pradesh",77.307785,28.775277
53070,Rampurhat Barddhaman Passenger,Pass,ER,RPH,RAMPUR HAT,BWN,BARDDHAMAN JN,06:15:00,08:47:00,2.0,32.0,112.0,53069,0,0,0,0,0,0,SSC,Shahi,NER,Uttar Pradesh,"Shahi, Uttar Pradesh",79.69100300000001,28.588173
53321,ASANSOL DHANBAD PASS,Pass,?,ASN,ASANSOL JN,DHN,DHANBAD JN,16:30:00,18:00:00,1.0,30.0,59.0,53322,0,0,0,0,0,0,OBR,OBRA DAM,ECR,Uttar Pradesh,"Obra, Uttar Pradesh",82.975949,24.438661
37355,Howrah-Tarakeswar Local,MEMU,?,HWH,HOWRAH JN,TAK,Tarakeswar,10:20:00,11:50:00,1.0,30.0,57.0,37356,0,0,0,0,0,0,PHX,PATHAKPUR,NR,Uttar Pradesh,"Chandausi, Uttar Pradesh",78.580494,28.369685
53338,Ranchi Garhbeta Passenger,Pass,ECR,RNC,RANCHI,GBA,GARHBETA,15:25:00,21:25:00,6.0,0.0,269.0,53337,0,0,0,0,0,0,PMM,PARSEHRA MAL,NER,Uttar Pradesh,"Parsehra, Uttar Pradesh",80.72917899999999,27.729917
11055,MUMBAI LTT - GORAKHPUR Exp,Exp,CR,LTT,LOKMANYA TILAK TERM,GKP,GORAKHPUR JN,10:55:00,20:15:00,33.0,20.0,1733.0,11056,1,1,1,0,0,0,PLS,PIPALSANA,NER,Uttar Pradesh,"State Highway 49, Uttar Pradesh",78.83533,28.952153
51882,Agra Gwalior Fast Passenger,Pass,NCR,AGC,AGRA CANTT,GWL,GWALIOR JN,07:35:00,10:15:00,2.0,40.0,118.0,51881,0,0,0,0,0,0,PRTP,PARTAPUR,NR,Uttar Pradesh,"Meerut, Uttar Pradesh",77.648699,28.925112
53484,Rajmahal Tinpahar Passenger,Pass,?,RJL,Rajmahal,TPH,TINPAHAR JN,06:48:00,07:13:00,0.0,25.0,11.0,53485,0,0,0,0,0,0,PUF,Pauta,NER,Uttar Pradesh,"Pauta, Uttar Pradesh",79.8118731085,28.4516032684
53487,Tinpahar Rajmahal Pass,Pass,?,TPH,TINPAHAR JN,RJL,Rajmahal,16:20:00,16:45:00,0.0,25.0,11.0,53488,0,0,0,0,0,0,PLWR,Phulwaria,NER,Uttar Pradesh,"Phulwaria, Uttar Pradesh",84.255615343,26.4688026951
53513,MADHUPUR GIRIDIH PASS,Pass,?,MDP,MADHUPUR JN,GRD,Giridih,08:30:00,09:30:00,1.0,0.0,36.0,53514,0,0,0,0,0,0,PLP,PHULPUR,NR,Uttar Pradesh,"Phulpur, Uttar Pradesh",82.091535,25.552534
53514,Giridih-Madhupur Passenger,Pass,ER,GRD,Giridih,MDP,MADHUPUR JN,09:50:00,10:50:00,1.0,0.0,36.0,53513,0,0,0,0,0,0,PRG,PRAYAG,NR,Uttar Pradesh,"Allahabad, Uttar Pradesh",81.867081,25.467939
53603,Gaya Dehri On Sone Passenger,Pass,ECR,GAYA,GAYA JN,DOS,DEHRI ON SONE,16:15:00,18:40:00,2.0,25.0,85.0,53602,0,0,0,0,0,0,KRSL,Krishnashilla,ECR,Uttar Pradesh,"Sonebhadra, Uttar Pradesh",82.7684964,24.1550254
53647,Dildarnagar Tarighat Passenger,Pass,NCR,DLN,DILDARNAGAR JN,TRG,Tarighat,17:00:00,17:45:00,0.0,45.0,19.0,53646,0,0,0,0,0,0,RMGJ,RAMGANJ,NR,Uttar Pradesh,"State Highway 9, Uttar Pradesh",82.020731,26.049174
57517,Hyderabad-Tandur Passenger,Pass,SCR,HYB,HYDERABAD DECCAN,TDU,TANDUR,12:35:00,15:15:00,2.0,40.0,116.0,,1,0,0,0,0,0,PRKE,PURUA KHERA,NR,Uttar Pradesh,"Bijnour, Uttar Pradesh",78.94859100000001,28.38702
19916,Ahmedabad Mahesana InterCity,Exp,WR,ADI,AHMEDABAD JN,MSH,MAHESANA JN,07:45:00,09:50:00,2.0,5.0,69.0,19915,0,0,0,0,0,0,RBK,REOTI BAHORA KHERA,NR,Uttar Pradesh,"Reoti B Khera, Uttar Pradesh",79.107047,28.318709
53611,Barwadih Dehri on Sone Passenger,Pass,?,BRWD,BARWADIH JN,DOS,DEHRI ON SONE,05:30:00,10:00:00,4.0,30.0,164.0,53612,0,0,0,0,0,0,PPKD,PAPRAKUND,ECR,Uttar Pradesh,"Obra, Uttar Pradesh",82.93171099999999,24.42109
53623,JHAJHA - GAYA Passenger,Pass,ECR,JAJ,JHAJHA,GAYA,GAYA JN,13:00:00,20:25:00,7.0,25.0,182.0,53624,0,0,0,0,0,0,PRZ,Parsa,NER,Uttar Pradesh,"Itwa Badhayan Rd, Uttar Pradesh",82.908499,27.435148
53648,Tarighat Dildarnagar Passenger,Pass,NCR,TRG,Tarighat,DLN,DILDARNAGAR JN,17:55:00,18:40:00,0.0,45.0,19.0,53647,0,0,0,0,0,0,RNIR,Rajnarainpur,NER,Uttar Pradesh,"State Highway 90, Uttar Pradesh",80.418359,28.313863
54018,Bhiwani Rohtak Passenger,Pass,NR,BNW,Bhiwani,ROK,ROHTAK JN,16:00:00,17:20:00,1.0,20.0,49.0,,0,0,0,0,0,0,RGLI,RANGAULI,NCR,Uttar Pradesh,"Mahoba, Uttar Pradesh",79.887282,25.150233
54035,DELHI  - JAKHAL PASSENGER,Pass,NR,DLI,OLD DELHI,JHL,JAKHAL JN,15:25:00,21:35:00,6.0,10.0,199.0,54036,0,0,0,0,0,0,PTRE,Patara,NCR,Uttar Pradesh,"Kanpur Nagar, Uttar Pradesh",80.203446,26.232168
54042,Jind Kurukshetra Passenger,Pass,NR,JIND,JIND JN,KKDE,KURUKSHETRA JN,13:10:00,16:15:00,3.0,5.0,126.0,54041,0,0,0,0,0,0,RBJ,Raibojha,NER,Uttar Pradesh,"State Highway 26, Uttar Pradesh",81.471651,27.971209
54050,ROHTAK - JIND PASSENGER,Pass,NR,JIND,JIND JN,ROK,ROHTAK JN,16:00:00,20:10:00,4.0,10.0,141.0,54049,0,0,0,0,0,0,RNA,ROHANA KALAN,NR,Uttar Pradesh,"Muzaffarnagar, Uttar Pradesh",77.68575799999999,29.575725
54105,Mughalsarai Allahabad Passenger,Pass,NCR,MGS,MUGHAL SARAI JN,ALD,ALLAHABAD JN,16:00:00,20:15:00,4.0,15.0,152.0,54106,0,0,0,0,0,0,RPMN,RAMPURMANI HARA,NR,Uttar Pradesh,"Saharanpur, Uttar Pradesh",77.4598714294,29.8055980689
54157,Jhansi Kanpur Passenger,Pass,NCR,JHS,JHANSI JN,CNB,KANPUR CENTRAL,07:55:00,14:00:00,6.0,5.0,222.0,54158,0,0,0,0,0,0,RNQ,RENUKUT,ECR,Uttar Pradesh,"Sonbhadra, Uttar Pradesh",83.039896,24.203558
54193,Hathras Kila Passenger,Pass,NCR,HRS,HATHRAS JN,HRF,Hathras Kila,08:50:00,09:15:00,0.0,25.0,9.0,54192,0,0,0,0,0,0,RRS,Raghuraj Singh,NR,Uttar Pradesh,"Raghuraj Singh Railway Station, Uttar Pradesh",80.87966899999999,26.255836
54226,Raibareli Unchahar Passenger,Pass,NR,RBL,RAE BARELI JN,UCR,Unchahar Junction,08:35:00,09:25:00,0.0,50.0,38.0,54225,0,0,0,0,0,0,RJ,Rawat Ganj,NER,Uttar Pradesh,"National Highway 29, Uttar Pradesh",83.2858752405,26.9578306035
54233,Faizabad Lucknow Passenger,Pass,NR,FD,FAIZABAD JN,LKO,LUCKNOW,17:30:00,21:25:00,3.0,55.0,127.0,54232,0,0,0,0,0,0,SAHR,SAHERI,NER,Uttar Pradesh,"National Highway 29, Uttar Pradesh",83.44911521,25.559103213
54252,Saharanpur Lucknow Passenger,Pass,NR,SRE,SAHARANPUR,LKO,LUCKNOW,08:20:00,04:05:00,19.0,45.0,520.0,54251,0,0,0,0,0,0,RZJ,RAZAGANJ,NER,Uttar Pradesh,"Lakhimpur Kheri, Uttar Pradesh",80.632889,27.994397
54264,Sultanpur Varanasi Passenger,Pass,NR,SLN,SULTANPUR,BSB,VARANASI JN,06:35:00,10:15:00,3.0,40.0,155.0,54263,0,0,0,0,0,0,RTR,RAMNATHPUR,NER,Uttar Pradesh,"Handia, Uttar Pradesh",82.017775,25.412362
54304,Kalka Delhi Passenger,Pass,NR,KLK,Kalka,DLI,OLD DELHI,07:15:00,19:40:00,12.0,25.0,337.0,54303,0,0,0,0,0,0,SEW,SEHAL,NER,Uttar Pradesh,"MDR 65W, Uttar Pradesh",78.822659,28.918565
54351,Aligarh Bareilly Passenger,Pass,NR,ALJN,ALIGARH JN,BE,BAREILLY,11:50:00,18:20:00,6.0,30.0,167.0,54352,0,0,0,0,0,0,DUB,DABTARA,NR,Uttar Pradesh,"Bisauli, Uttar Pradesh",78.991164,28.368424
54325,Sitapur Kanpur DMU,Pass,NR,SCC,SITAPUR CANT,CNB,KANPUR CENTRAL,10:45:00,19:35:00,8.0,50.0,186.0,54326,0,0,0,0,0,0,SKF,SAKHOTI TANDA,NR,Uttar Pradesh,"Meerut, Uttar Pradesh",77.71804900000001,29.192626
54326,KANPUR SITAPUR PASS,Pass,NR,CNB,KANPUR CENTRAL,SCC,SITAPUR CANT,05:15:00,14:40:00,9.0,25.0,185.0,54325,0,0,0,0,0,0,SMQL,SHAMLI,NR,Uttar Pradesh,"Shamli, Uttar Pradesh",77.316231,29.444597
54462,BAREILLY - BANDIKUI Passenger,Pass,NR,BE,BAREILLY,BKI,BANDIKUI JN,20:25:00,02:35:00,6.0,10.0,160.0,54461,0,0,0,0,0,0,SOI,Sonaripur,NER,Uttar Pradesh,"MDR 6C, Uttar Pradesh",80.7274215704,28.4746409298
54387,Najibabad Kotdwara Pass,Pass,NR,NBD,NAJIBABAD JN,KTW,KOTDWARA,11:35:00,12:20:00,0.0,45.0,24.0,54386,0,0,0,0,0,0,SKTN,Shakti Nagar,ECR,Uttar Pradesh,"Dist. Sonebhadra, Uttar Pradesh",82.704734,24.122899
54411,Rewari Meerut Cantt. Passenger,Pass,NWR,RE,REWARI,MUT,MEERUT CANT,14:50:00,20:30:00,5.0,40.0,167.0,54412,0,0,0,0,0,0,SNX,SANEH ROAD,NR,Uttar Pradesh,"Saneh Road, Uttar Pradesh",78.4494025903,29.6896522725
54463,BANDIKUI - RISHIKESH Passenger,Pass,NWR,BKI,BANDIKUI JN,RKSH,RISHIKESH,14:50:00,13:55:00,23.0,5.0,579.0,54464,0,0,0,0,0,0,SRNK,Soron,NER,Uttar Pradesh,"Soron, Uttar Pradesh",78.748458,27.883354
54503,Delhi Bhiwani Passenger,Pass,NR,DLI,OLD DELHI,BNW,Bhiwani,16:45:00,20:15:00,3.0,30.0,119.0,54502,0,0,0,0,0,0,SNDY,SANDAI,NER,Uttar Pradesh,"Sandai, Uttar Pradesh",79.990982,28.572634
54531,Ambala Kalka Shuttle,Pass,NR,UMB,AMBALA CANT JN,KLK,Kalka,18:30:00,20:20:00,1.0,50.0,69.0,54532,0,0,0,0,0,0,SPGL,Sarai Gopal,NR,Uttar Pradesh,"Allahabad Bypass, Uttar Pradesh",81.822277,25.548656
54542,AMBALA MEERUT PASS,Pass,NR,UMB,AMBALA CANT JN,MTC,MEERUT CITY,16:25:00,23:15:00,6.0,50.0,194.0,54541,0,0,0,0,0,0,STH,Sethal,NER,Uttar Pradesh,"Bareilly, Uttar Pradesh",79.56736599999999,28.543189
54576,Lohian Khas Ludhiana Passenger,Pass,NR,LNK,LOHIAN KHAS JN,LDH,LUDHIANA JN,05:50:00,08:25:00,2.0,35.0,77.0,54575,0,0,0,0,0,0,SRN,Soron,NER,Uttar Pradesh,"Soron, Uttar Pradesh",78.748798,27.883694
54522,Saharanpur Delhi Passenger,Pass,NR,SRE,SAHARANPUR,DLI,OLD DELHI,04:40:00,09:40:00,5.0,0.0,187.0,54521,0,0,0,0,0,0,GTI,GHUTAI,NCR,Uttar Pradesh,"National Highway 76, Uttar Pradesh",79.4413220264,25.289429766
54556,Bhatinda Ambala Passenger,Pass,NR,BTI,BHATINDA JN,UMB,AMBALA CANT JN,17:25:00,22:45:00,5.0,20.0,200.0,,0,0,0,0,0,0,SSKA,SISARKA,NR,Uttar Pradesh,"State Highway 43, Uttar Pradesh",78.846279,28.431279
54558,Patiala Ambala Passenger,Pass,NR,PTA,Patiala,UMB,AMBALA CANT JN,17:15:00,18:35:00,1.0,20.0,53.0,54557,0,0,0,0,0,0,SRNT,SARNATH,NER,Uttar Pradesh,"Varanasi, Uttar Pradesh",83.032634,25.375998
54701,Bhatinda Lalgarh Passenger,Pass,NWR,BTI,BHATINDA JN,LGH,LALGARH JN,10:50:00,18:45:00,7.0,55.0,321.0,,1,0,0,0,0,0,SYC,SARAI CHANDI,NR,Uttar Pradesh,"Phulpur, Uttar Pradesh",81.97958463810001,25.5394209652
54615,Amritsar Pathankot DMU,Pass,NR,ASR,AMRITSAR JN,PTK,PATHANKOT,17:35:00,20:50:00,3.0,15.0,107.0,54614,0,0,0,0,0,0,SYH,SAIYEDPUR BHTRI,NER,Uttar Pradesh,"Saidpur, Uttar Pradesh",83.23297400000001,25.539724
54786,Fazilka Fir Passenger,Pass,NR,FKA,Fazilka,FZR,FIROZPUR CANT,17:20:00,19:45:00,2.0,25.0,88.0,54785,0,0,0,0,0,0,TRG,Tarighat,ECR,Uttar Pradesh,"Ghazipur, Uttar Pradesh",83.60210496000946,25.571721452321867
54794,Mathura Bayana Passenger,Pass,NWR,MTJ,MATHURA JN,SWM,SAWAI MADHOPUR,14:00:00,19:45:00,5.0,45.0,217.0,,0,0,0,0,0,0,THJ,TALHERI BUZURG,NR,Uttar Pradesh,"SH 59, Uttar Pradesh",77.64430899999999,29.766916
55007,Hajipur Thawe Passenger,Pass,NER,HJP,HAJIPUR JN,THE,Thawe Junction,17:35:00,22:20:00,4.0,45.0,152.0,55008,0,0,0,0,0,0,TPZ,TAPRI JN,NR,Uttar Pradesh,"Saharanpur, Uttar Pradesh",77.58327200000001,29.915728
55031,Gonda Lucknow Passenger,Pass,NER,GD,GONDA JN,LJN,LUCKNOW JN,16:55:00,21:30:00,4.0,35.0,126.0,55032,0,0,0,0,0,0,TQN,TIKUNIA,NER,Uttar Pradesh,"Tikapur Municipality, Uttar Pradesh",80.981217,28.378823
55035,GONDA - SITAPUR Pass,Pass,NER,GD,GONDA JN,SCC,SITAPUR CANT,05:00:00,09:05:00,4.0,5.0,159.0,55036,0,0,0,0,0,0,TRN,TARAON,NER,Uttar Pradesh,"Tranav Railway Station, Uttar Pradesh",83.311179,25.526193
53425,Jamalpur Kiul Passenger,Pass,ER,JMP,JAMALPUR JN,KIUL,KIUL JN,20:00:00,21:25:00,1.0,25.0,45.0,53424,0,0,0,0,0,0,UB,Uska Bazar,NER,Uttar Pradesh,"State Highway 1A, Uttar Pradesh",83.12594999999999,27.189993
55133,Ballia Varanasi Passenger,Pass,NER,BUI,BALLIA,BCY,VARANASI CITY,05:45:00,09:30:00,3.0,45.0,137.0,,0,0,0,0,0,0,VNN,BHANAUR,NR,Uttar Pradesh,"State Highway 36, Uttar Pradesh",82.530022,25.57316
55239,Samastipur Muzaffarpur Passenger,Pass,ECR,SPJ,SAMASTIPUR JN,MFP,MUZAFFARPUR JN,13:00:00,14:30:00,1.0,30.0,52.0,55240,0,0,0,0,0,0,UGU,Ugu,NR,Uttar Pradesh,"Unnao, Uttar Pradesh",80.299391,26.804338
55339,KasGanj-Mathura Passenger,Pass,NER,KSJ,KASGANJ,MTJ,MATHURA JN,11:55:00,14:50:00,2.0,55.0,105.0,,0,0,0,0,0,0,AFR,ASAFPUR,NR,Uttar Pradesh,"Bijnor, Uttar Pradesh",78.905957,28.405553
55348,LAL KUAN - BAREILLY CITY  PASSENGER,Pass,NER,LKU,LAL KUAN,BC,BAREILLY CITY,08:30:00,11:10:00,2.0,40.0,105.0,55349,0,0,0,0,0,0,AMA,ATAMANDA,NER,Uttar Pradesh,"State Highway 37, Uttar Pradesh",79.468143,28.58606
55504,Darbhanga-Samastipur Passenger,Pass,ECR,DBG,DARBHANGA JN,SPJ,SAMASTIPUR JN,07:45:00,09:10:00,1.0,25.0,36.0,55503,0,0,0,0,0,0,AHU,Ahirauli,NER,Uttar Pradesh,"State Highway 1A, Uttar Pradesh",83.03422499999999,27.30686
55520,Jaynagar Darbhanga Passenger,Pass,ECR,JYG,JAYNAGAR,DBG,DARBHANGA JN,17:20:00,20:00:00,2.0,40.0,73.0,55519,0,0,0,0,0,0,YDV,Yadvendranagar,NER,Uttar Pradesh,"Yadvendranagar, Uttar Pradesh",82.75140999999999,25.756558
55529,Samastipur-Raxaul Passenger,Pass,ECR,SPJ,SAMASTIPUR JN,RXL,RAXAUL JN,07:40:00,13:55:00,6.0,15.0,182.0,55530,0,0,0,0,0,0,YEAM,Yogendra Dham Halt,NER,Uttar Pradesh,"Yogendra Dham, Uttar Pradesh",81.728543,27.454598
55530,Raxaul-Samastipur Passenger,Pass,NER,RXL,RAXAUL JN,SPJ,SAMASTIPUR JN,16:05:00,22:55:00,6.0,50.0,182.0,55529,0,0,0,0,0,0,AKW,Akora,NCR,Uttar Pradesh,"National Highway 86, Uttar Pradesh",80.139995,25.613687
55538,Samastipur-Katihar Passenger,Pass,ECR,SPJ,SAMASTIPUR JN,KIR,KATIHAR JN,12:45:00,19:50:00,7.0,5.0,230.0,55537,0,0,0,0,0,0,BEU,Bisheshwarganj,NER,Uttar Pradesh,"Bisheshwarganj, Uttar Pradesh",81.833817,27.341282
55553,Dauram Madhepura Samastipur Passenger,Pass,NER,DMH,Dauram Madhepura,SPJ,SAMASTIPUR JN,05:30:00,12:10:00,6.0,40.0,158.0,55554,0,0,0,0,0,0,BPR,BHOJIPURA JN,NER,Uttar Pradesh,"SH 37, Uttar Pradesh",79.44724,28.4939826
55569,DauramMadhepura-Saharsa Passenger,Pass,NER,DMH,Dauram Madhepura,SHC,SAHARSA JN,11:05:00,12:10:00,1.0,5.0,22.0,55570,0,0,0,0,0,0,BFV,BAHELIA BUZURG,NER,Uttar Pradesh,"Bahelia Buzurg, Uttar Pradesh",80.512537,28.046924
55570,Saharsa-DauramMadhepura Passenger,Pass,NER,SHC,SAHARSA JN,DMH,Dauram Madhepura,09:50:00,10:45:00,0.0,55.0,22.0,55569,0,0,0,0,0,0,BHBR,Bathua Bazar,NER,Uttar Pradesh,"Phulwaria, Uttar Pradesh",84.2321793958,26.4968303633
55573,Raxaul Narkatiaganj Passenger,Pass,NER,RXL,RAXAUL JN,NKE,NARKATIAGANJ JN,19:15:00,22:00:00,2.0,45.0,88.0,55574,0,0,0,0,0,0,BTKP,BHARAT KUP,NCR,Uttar Pradesh,"Chitrakoot, Uttar Pradesh",80.76767899999999,25.217166
55574,Narkatiaganj Raxaul Passenger,Pass,NER,NKE,NARKATIAGANJ JN,RXL,RAXAUL JN,08:50:00,11:40:00,2.0,50.0,88.0,55573,0,0,0,0,0,0,BIK,BHIRA KHERI,NER,Uttar Pradesh,"Lakhimpur Kheri, Uttar Pradesh",80.486132,28.334799
55575,Darbhanga-Biraul Passenger,Pass,ECR,DBG,DARBHANGA JN,BIRL,Biraul,08:00:00,10:45:00,2.0,45.0,54.0,55576,0,0,0,0,0,0,BAOL,BAOLI,NR,Uttar Pradesh,"Bagpat, Uttar Pradesh",77.278015354,29.1404570352
55576,Biraul-Darbhanga Passenger,Pass,ECR,BIRL,Biraul,DBG,DARBHANGA JN,17:00:00,19:40:00,2.0,40.0,54.0,55575,0,0,0,0,0,0,BTX,BELA TAL,NCR,Uttar Pradesh,"Chhatarpur, Uttar Pradesh",79.55448188960001,25.2767862477
55712,New Jalpaiguri Malda Town Passenger,Pass,NFR,NJP,NEW JALPAIGURI,MLDT,MALDA TOWN,05:45:00,14:30:00,8.0,45.0,232.0,55711,0,0,0,0,0,0,BLTR,BELTHARA ROAD,NER,Uttar Pradesh,"Belthara, Uttar Pradesh",83.841719,26.121418
55721,Malda Town Balurghat Passenger,Pass,NFR,MLDT,MALDA TOWN,BLGT,BALURGHAT,06:50:00,09:40:00,2.0,50.0,104.0,55722,0,0,0,0,0,0,BCY,VARANASI CITY,NER,Uttar Pradesh,"Varanasi, Uttar Pradesh",83.0141142,25.3341176
55736,Jogbani Katihar Passenger,Pass,NFR,JBN,JOGBANI,KIR,KATIHAR JN,10:40:00,13:55:00,3.0,15.0,108.0,55735,0,0,0,0,0,0,BNKJ,BANKE GANJ,NER,Uttar Pradesh,"Lakhimpur Kheri, Uttar Pradesh",80.416286,28.158478
55750,Haldibari New Jalpaiguri Passenger,Pass,NFR,HDB,HALDIBARI,NJP,NEW JALPAIGURI,11:45:00,13:35:00,1.0,50.0,56.0,55749,0,0,0,0,0,0,DMW,Dalmau Junction,NR,Uttar Pradesh,"Dalmau, Uttar Pradesh",81.05365,26.07525
53431,Sahibganj Jamalpur Passenger,Pass,ER,SBG,SAHIBGANJ JN,JMP,JAMALPUR JN,07:45:00,11:25:00,3.0,40.0,135.0,53432,0,0,0,0,0,0,BWR,BARWA SAGAR,NCR,Uttar Pradesh,"Jhansi(0510-2440441), Uttar Pradesh",78.731628,25.351848
55755,Manihari Katihar Pass,Pass,NFR,MHI,Manihari,KIR,KATIHAR JN,08:30:00,09:35:00,1.0,5.0,24.0,55756,0,0,0,0,0,0,BUBT,BURAHA BHARTHA,NCR,Uttar Pradesh,"Buraha Bharthara, Uttar Pradesh",78.67032900000001,27.108219
55905,Dibrugarh Ledo Passenger,Pass,NFR,DBRT,DIBRUGARH TOWN,LEDO,Ledo,07:05:00,10:45:00,3.0,40.0,103.0,55906,0,0,0,0,0,0,GTP,Ghatpuri,NER,Uttar Pradesh,"State Highway 33, Uttar Pradesh",79.20593600000001,28.125246
56040,Thanjavur Kumbakonam Passenger,Pass,SR,TJ,THANJAVUR,KMU,KUMBAKONAM,18:05:00,19:30:00,1.0,25.0,39.0,56039,0,0,0,0,0,0,DWI,DINGWAHI,NCR,Uttar Pradesh,"National Highway 76, Uttar Pradesh",80.414159,25.416805
56213,CHAMARAJANAGAR - TIRUPATI Fast Passenger,Pass,SWR,CMNR,CHAMARAJANAGAR,TPTY,TIRUPATI MAIN,15:00:00,05:35:00,14.0,35.0,535.0,56214,1,0,0,0,1,0,GLBN,GUJRAN BALWA,NR,Uttar Pradesh,"State Highway 57, Uttar Pradesh",77.301364624,29.4068014069
56043,Guruvayur Thrissur Passenger,Pass,SR,GUV,GURUVAYUR,TCR,THRISUR,17:05:00,17:40:00,0.0,35.0,23.0,56044,0,0,0,0,0,0,GK,GOLA GOKARANATH,NER,Uttar Pradesh,"Gola, Uttar Pradesh",80.475468,28.084651
56103,Mettur Dam Salem Passenger,Pass,SR,MTDM,METUR DAM,SA,SALEM JN,09:05:00,10:35:00,1.0,30.0,39.0,56102,0,0,0,0,0,0,GDO,Goverdhan,NCR,Uttar Pradesh,"Mathura District, Uttar Pradesh",77.46164300000001,27.520546
56144,Coimbatore Mettupalaiyam Passenger,Pass,SR,CBE,COIMBATORE JN,MTP,Mettupalayam,17:55:00,18:45:00,0.0,50.0,35.0,56145,0,0,0,0,0,0,GRMR,Garhi Manikpur,NR,Uttar Pradesh,"Garhi Manikpur, Uttar Pradesh",81.40315299999999,25.786329
56146,Coimbatore-Mettupalayam Passenger,Pass,SR,CBE,COIMBATORE JN,MTP,Mettupalayam,09:30:00,10:20:00,0.0,50.0,35.0,56145,0,0,0,0,0,0,JLQ,JALPUR,?,Uttar Pradesh,"MDR 65W, Uttar Pradesh",78.870355,29.012364
56202,Mysore Chamrajnagar passenger,Pass,SWR,MYS,MYSORE JN,CMNR,CHAMARAJANAGAR,05:00:00,06:45:00,1.0,45.0,61.0,56201,0,0,0,0,0,0,JKNI,Jharkhandi,NER,Uttar Pradesh,"MDR 10E, Uttar Pradesh",82.17975597290001,27.4330507545
56206,Nanjangud Mysore Passenger,Pass,SWR,MYS,MYSORE JN,NTW,NANJANGUD TOWN,09:15:00,10:00:00,0.0,45.0,25.0,56205,0,0,0,0,0,0,ITE,Intiyathok,NER,Uttar Pradesh,"MDR 10E, Uttar Pradesh",82.0254415802,27.2755528618
56210,Mysore Chamrajnagar passenger,Pass,SWR,MYS,MYSORE JN,CMNR,CHAMARAJANAGAR,12:30:00,14:20:00,1.0,50.0,61.0,56209,0,0,0,0,0,0,KDQ,KADIPUR,NER,Uttar Pradesh,"National Highway 29, Uttar Pradesh",83.09130300000001,25.44872
56211,Chamrajnagar Mysore Passenger,Pass,SWR,CMNR,CHAMARAJANAGAR,MYS,MYSORE JN,20:50:00,22:40:00,1.0,50.0,61.0,56210,0,0,0,0,0,0,IDGJ,IRADATGANJ,NCR,Uttar Pradesh,"Allahabad, Uttar Pradesh",81.81928099999999,25.317889
56227,Bangalore Shimoga Town Passenger,Pass,SWR,SBC,BANGALORE CITY JN,SMET,Shimoga Town,16:45:00,23:55:00,7.0,10.0,276.0,56228,0,0,0,0,0,0,KEX,KHEKRA,NR,Uttar Pradesh,"Tronica City, Uttar Pradesh",77.288916,28.8715
56230,Bangalore Mysore Passenger,Pass,SWR,SBC,BANGALORE CITY JN,MYS,MYSORE JN,16:25:00,20:05:00,3.0,40.0,137.0,56229,0,0,0,0,0,0,HDK,HANDIA KHAS,NER,Uttar Pradesh,"Handia, Uttar Pradesh",82.18941,25.357472
56234,Mysore Bangalore Passenger,Pass,SWR,MYS,MYSORE JN,SBC,BANGALORE CITY JN,18:50:00,22:25:00,3.0,35.0,138.0,56233,0,0,0,0,0,0,JSC,Jalesar City,NCR,Uttar Pradesh,"Jalesar, Uttar Pradesh",78.30634,27.459871
56262,BANGALORE - ARAKKONAM Passenger,Pass,SWR,SBC,BANGALORE CITY JN,AJJ,ARAKKONAM,09:20:00,20:50:00,11.0,30.0,290.0,56261,0,0,0,0,0,0,KDF,KHUNDAUR,NR,Uttar Pradesh,"Ramapur Railway Station, Uttar Pradesh",82.01505399999999,26.020077
56269,Shimoga Mysore Passenger,Pass,SWR,SMET,Shimoga Town,MYS,MYSORE JN,10:30:00,16:55:00,6.0,25.0,276.0,56270,0,0,0,0,0,0,KJTW,KAJGAON TERHWAN,NR,Uttar Pradesh,"Kajgaon, Uttar Pradesh",82.70545000000001,25.685669
56271,Shimoga Birur Passenger,Pass,SWR,SMET,Shimoga Town,RRB,BIRUR JN,18:00:00,19:45:00,1.0,45.0,63.0,56272,0,0,0,0,0,0,KHU,KHURHAND,NCR,Uttar Pradesh,"Atarra, Uttar Pradesh",80.49498,25.352584
56303,Ernakulam Alappuzha Passenger,Pass,SR,ERS,ERNAKULAM JN,ALLP,ALLEPPEY,15:40:00,17:20:00,1.0,40.0,57.0,56302,0,0,0,0,0,0,KMDR,KARIMUDDIN PUR,NER,Uttar Pradesh,"Karimdinpur, Uttar Pradesh",83.860581,25.700369
56310,Nagercoil Tiruvananthapuram Passenger,Pass,SR,NCJ,NAGERCOIL JN,TVC,TRIVANDRUM CENTRAL,06:45:00,08:50:00,2.0,5.0,71.0,56311,0,0,0,0,0,0,KMP,KAMLAPUR,NER,Uttar Pradesh,"Kamalpur, Uttar Pradesh",80.822278,27.378437
56312,Tirunelveli Nagercoil Passenger,Pass,SR,TEN,TIRUNELVELI,NCJ,NAGERCOIL JN,08:00:00,09:50:00,1.0,50.0,74.0,,0,0,0,0,0,0,KFK,KATKA,NER,Uttar Pradesh,"Mirzapur, Uttar Pradesh",82.634249,25.250251
56325,Nagercoil Cape Passenger,Pass,SR,NCJ,NAGERCOIL JN,CAPE,KANYAKUMARI,16:45:00,17:05:00,0.0,20.0,15.0,,0,0,0,0,0,0,SPPR,SHUDNIPUR,NR,Uttar Pradesh,"State Highway 5, Uttar Pradesh",82.64049800000001,25.626255
56505,Bangarpet Marikuppam Passenger,Pass,SWR,BWT,BANGARAPET,MKM,Marikuppam,13:00:00,13:35:00,0.0,35.0,16.0,56506,0,0,0,0,0,0,KRTL,Kartauli,NER,Uttar Pradesh,"State Highway 33, Uttar Pradesh",79.42761829999999,28.3110435
56515,BANGALORE CITY - HUBLI Pass,Pass,SWR,SBC,BANGALORE CITY JN,UBL,HUBLI JN,07:50:00,20:20:00,12.0,30.0,471.0,56516,0,0,0,0,0,0,KSNR,KHUSHAL NAGAR,NER,Uttar Pradesh,"Ghughli Bazar, Uttar Pradesh",83.6983925134,26.9877753343
56333,Punalur Kollam Passenger,Pass,SR,PUU,Punalur,QLN,KOLLAM JN,10:35:00,12:00:00,1.0,25.0,45.0,56332,0,0,0,0,0,0,KQL,KANDHLA,NR,Uttar Pradesh,"MDR 22W, Uttar Pradesh",77.293239,29.324701
56334,Kollam Punalur Passenger,Pass,SR,QLN,KOLLAM JN,PUU,Punalur,08:40:00,10:05:00,1.0,25.0,45.0,56333,0,0,0,0,0,0,KZI,KHANDRAWALI,NR,Uttar Pradesh,"State Highway 57, Uttar Pradesh",77.2938848779,29.382584655
56371,Guruvayur Ernakulam Passenger,Pass,SR,GUV,GURUVAYUR,ERS,ERNAKULAM JN,06:45:00,09:20:00,2.0,35.0,97.0,56370,0,0,0,0,0,0,LMP,LAKHIMPUR,NER,Uttar Pradesh,"Lakhimpur, Uttar Pradesh",80.777625,27.947414
56377,Allepey Kayankulam Passenger,Pass,SR,ALLP,ALLEPPEY,KYJ,KAYANKULAM JN,05:05:00,06:15:00,1.0,10.0,44.0,56378,0,0,0,0,0,0,LBW,Laiburwa Halt,NER,Uttar Pradesh,"Laiburwa, Uttar Pradesh",82.4683445782,27.5260420401
56391,Ernakulam Kollam Passenger,Pass,SR,ERS,ERNAKULAM JN,QLN,KOLLAM JN,18:05:00,22:35:00,4.0,30.0,156.0,56392,0,0,0,0,0,0,MCV,MACHARYA,NR,Uttar Pradesh,"Kundarkhi, Uttar Pradesh",78.80370199999999,28.772575
56501,Vijayawada Hubli Passenger,Pass,SWR,BZA,VIJAYAWADA JN,UBL,HUBLI JN,07:10:00,04:30:00,21.0,20.0,693.0,56502,1,0,0,0,0,0,MFJ,Muftiganj,NER,Uttar Pradesh,"Jaunpur, Uttar Pradesh",82.827774,25.700913
56509,Marikuppam Bangalore Passenger,Pass,SWR,MKM,Marikuppam,SBC,BANGALORE CITY JN,14:00:00,17:00:00,3.0,0.0,86.0,56508,0,0,0,0,0,0,MFX,MADARAHA,NCR,Uttar Pradesh,"National Highway 76, Uttar Pradesh",81.764284,25.273637
56510,Bangalore Marikuppam passenger,Pass,SWR,SBC,BANGALORE CITY JN,MKM,Marikuppam,07:00:00,09:35:00,2.0,35.0,86.0,56509,0,0,0,0,0,0,MJHR,MAJHIARI,NCR,Uttar Pradesh,"National Highway 76, Uttar Pradesh",81.5188330261,25.1789843066
56514,Bangalore Salem Passenger,Pass,SWR,SBC,BANGALORE CITY JN,SA,SALEM JN,07:15:00,12:50:00,5.0,35.0,218.0,56513,0,0,0,0,0,0,MNKN,MANIKALAN HALT,NR,Uttar Pradesh,"Nawab Yousuf Rd, Uttar Pradesh",82.691157,25.917549
56525,Bangalore Chik ballapur Passenger,Pass,SWR,SBC,BANGALORE CITY JN,CBP,Chik Ballapur,18:00:00,19:50:00,1.0,50.0,64.0,56526,0,0,0,0,0,0,MLW,Mallanwan,NR,Uttar Pradesh,"Mallawan, Uttar Pradesh",80.1583349207,27.0362379616
56601,Shoranur Kozhikode Passenger,Pass,SR,SRR,SHORANUR JN,CLT,KOZHIKODE,17:45:00,20:00:00,2.0,15.0,86.0,56600,0,0,0,0,0,0,MBP,MOHIBULLAPUR,NER,Uttar Pradesh,"Aliganj, Uttar Pradesh",80.938923,26.909235
56613,Shoranur Nilambur Fast Passenger,Pass,SR,SRR,SHORANUR JN,NIL,Nilambur Road,09:20:00,11:05:00,1.0,45.0,67.0,56612,0,0,0,0,0,0,MANW,MANWA,NER,Uttar Pradesh,"Manwa, Uttar Pradesh",80.849604,27.218852
56607,Shoranur Ernakulam Passenger,Pass,SR,SRR,SHORANUR JN,ERS,ERNAKULAM JN,04:50:00,08:00:00,3.0,10.0,107.0,56606,0,0,0,0,0,0,MUV,MANDUADIH,NER,Uttar Pradesh,"Varanasi, Uttar Pradesh",82.972079,25.300001
56620,Nilambur Road Shoranur Pass,Pass,SR,NIL,Nilambur Road,SRR,SHORANUR JN,19:30:00,21:20:00,1.0,50.0,67.0,56619,0,0,0,0,0,0,NRNR,Nurnagar,NR,Uttar Pradesh,"Meerut, Uttar Pradesh",77.71298900000001,28.915414
56646,Subramanya Road Mangalore Passenger,Pass,SR,SBHR,Subrahmanya Road,MAQ,MANGALORE CNTL,13:25:00,15:55:00,2.0,30.0,92.0,56647,0,0,0,0,0,0,MZGI,MANZURGARHI,NCR,Uttar Pradesh,"Aligarh, Uttar Pradesh",78.10663,27.96429
56657,Calicut Kannur Passenger,Pass,SR,CLT,KOZHIKODE,CAN,KANNUR,14:20:00,16:40:00,2.0,20.0,89.0,,0,0,0,0,0,0,NEW,NIVARI,NCR,Uttar Pradesh,"Jhansi, Uttar Pradesh",78.82007,25.328061
56735,MADURAI  - SENGOTTAI PASSENGER,Pass,SR,MDU,MADURAI JN,SCT,SENGOTTAI,17:20:00,21:05:00,3.0,45.0,173.0,56734,0,0,0,0,0,0,NTU,NIGATPUR,NER,Uttar Pradesh,"Mirzapur, Uttar Pradesh",82.758511,25.251216000000003
56824,Tiruchchirapalli Mayiladuturai Passenger,Pass,SR,TPJ,TIRUCHIRAPPALLI,MV,MAYILADUTURAI JN,07:10:00,10:45:00,3.0,35.0,120.0,56823,0,0,0,0,0,0,NUH,Naugarh,NER,Uttar Pradesh,"Naugarh, Uttar Pradesh",83.08829899999999,27.27503
55610,FKM - DBB FAST PASSENGER,Pass,NFR,FKM,FAKIRAGRAM JN,DBB,DHUBRI,22:15:00,05:15:00,7.0,0.0,267.0,55609,0,0,0,0,0,0,RBGJ,ROBERTS GANJ,NCR,Uttar Pradesh,"Robertsganj, Uttar Pradesh",83.077822,24.683136
56704,DINDIGUL - TIRUCHCHIRAPALI PASSENGER,Pass,SR,DG,DINDIGUL JN,TPJ,TIRUCHIRAPPALLI,06:15:00,08:30:00,2.0,15.0,170.0,56703,0,0,0,0,0,0,POKL,PEOKOL,NER,Uttar Pradesh,"Deoria, Uttar Pradesh",83.930204,26.340803
56706,MADURAI - VILLUPURAM PASSENGER,Pass,SR,MDU,MADURAI JN,VM,VILLUPURAM JN,00:45:00,12:15:00,11.0,30.0,337.0,56705,0,0,0,0,0,0,PPC,PIPRAICH,NER,Uttar Pradesh,"Gorakhpur Bypass, Uttar Pradesh",83.535848,26.828307
56726,Rameswaram Madurai Passenger,Pass,SR,RMM,RAMESWARAM,MDU,MADURAI JN,17:35:00,21:20:00,3.0,45.0,161.0,56725,0,0,0,0,0,0,PFM,PHAPHAMAU JN,NR,Uttar Pradesh,"Phaphamau, Uttar Pradesh",81.866406,25.524256
56762,Tiruchendur Tirunelveli Passenger,Pass,SR,TCN,Tiruchendur,TEN,TIRUNELVELI,07:20:00,09:05:00,1.0,45.0,61.0,56761,0,0,0,0,0,0,PNHI,PANHAI,NCR,Uttar Pradesh,"Manikpur, Uttar Pradesh",81.189495,25.081679
56828,Tirunelveli Tuticorin Passenger,Pass,SR,TEN,TIRUNELVELI,TN,TUTICORIN,07:15:00,09:25:00,2.0,10.0,60.0,56827,0,0,0,0,0,0,RHN,ROSHANPUR,NER,Uttar Pradesh,"Tanda, Uttar Pradesh",78.887727,29.046556
56865,Puducherry-Villupuram Passenger,Pass,SR,VM,VILLUPURAM JN,PDY,Puducherry,17:40:00,18:25:00,0.0,45.0,38.0,56864,0,0,0,0,0,0,RORA,RORA,NCR,Uttar Pradesh,"Jhansi, Uttar Pradesh",79.236769,25.293896
56841,Tiruchchirapalli Erode Passenger,Pass,SR,TPJ,TIRUCHIRAPPALLI,ED,ERODE JN,06:45:00,11:00:00,4.0,15.0,141.0,56842,0,0,0,0,0,0,RTB,RAJA TALAB,NER,Uttar Pradesh,"Mirzapur, Uttar Pradesh",82.8507290414,25.2639068026
56852,Trichy Nagore Passenger,Pass,SR,TPJ,TIRUCHIRAPPALLI,NCR,Nagore,16:30:00,20:55:00,4.0,25.0,135.0,56851,0,0,0,0,0,0,RS,Risia,NER,Uttar Pradesh,"Risia Railway Station, Uttar Pradesh",81.605514,27.688822
56864,Puducherry-Villupuram Passenger,Pass,SR,PDY,Puducherry,VM,VILLUPURAM JN,16:00:00,16:50:00,0.0,50.0,38.0,56863,0,0,0,0,0,0,RAK,Ramkot,NR,Uttar Pradesh,"Ramkot, Uttar Pradesh",80.59740799999999,27.534312
56911,Bangalore Hubli passenger,Pass,SWR,JRU,CHIKJAJUR JN,UBL,HUBLI JN,05:30:00,10:45:00,5.0,15.0,189.0,,0,0,0,0,0,0,STZ,Satraon,NER,Uttar Pradesh,"Deoria, Uttar Pradesh",83.82137900000001,26.283587
57129,Bijapur-Bolarum Passenger,Pass,SCR,BJP,BIJAPUR,BMO,BOLARUM,18:20:00,08:45:00,14.0,25.0,456.0,,1,0,0,0,0,0,STP,SITAPUR,NER,Uttar Pradesh,"Sitapur, Uttar Pradesh",80.697762,27.558728
57122,Sirpur Town Kazipet Passenger,Pass,SCR,SRUR,SIRPUR TOWN,KZJ,KAZIPET JN,15:15:00,20:05:00,4.0,50.0,183.0,,0,0,0,0,0,0,SNZ,Sherganj,NER,Uttar Pradesh,"Sherganj, Uttar Pradesh",79.804862,28.380489
57217,Guntur Macherla Passenger,Pass,SCR,GNT,GUNTUR JN,MCLA,Macherla,08:00:00,11:45:00,3.0,45.0,130.0,,0,0,0,0,0,0,BHKL,BHAKRAULI,NR,Uttar Pradesh,"State Highway 39, Uttar Pradesh",78.474665,28.308471
57220,Macherla Guntur Passenger,Pass,SCR,MCLA,Macherla,GNT,GUNTUR JN,16:30:00,19:40:00,3.0,10.0,130.0,57219,0,0,0,0,0,0,SWE,SIWAITH,NR,Uttar Pradesh,"Prayag, Uttar Pradesh",81.86926100000001,25.577038
57242,Vijayawada bitragunta Passenger,Pass,SCR,BZA,VIJAYAWADA JN,BTTR,BITRAGUNTA,15:15:00,20:45:00,5.0,30.0,221.0,57241,0,0,0,0,0,0,SZP,Shahjahanpur,NER,Uttar Pradesh,"Shahjahanpur, Uttar Pradesh",79.904536,27.893402
57280,Bhimavaram Gudivada Passenger,Pass,SCR,BVRM,Bhimavaram Junction,GDV,GUDIVADA JN,16:00:00,18:10:00,2.0,10.0,66.0,,0,0,0,0,0,0,TQA,Takia,NR,Uttar Pradesh,"State Highway 38, Uttar Pradesh",80.782017,26.311679
57239,Chennai Gudur Passenger,Pass,SCR,MAS,CHENNAI CENTRAL,GDR,GUDUR JN,16:00:00,21:10:00,5.0,10.0,137.0,,0,0,0,0,0,0,AA,ATARIA,NER,Uttar Pradesh,"Sitapur National Highway 24, Uttar Pradesh",80.861033,27.172457
57256,Visakhapatnam Kakinada Port passenger,Pass,SCR,VSKP,VISHAKAPATNAM,COA,Kakinada Port,17:00:00,21:05:00,4.0,5.0,164.0,57255,0,0,0,0,0,0,AED,AULENDA,NCR,Uttar Pradesh,"Kiraoli, Uttar Pradesh",77.612583,27.029152
57262,Nidadavolu Bhimavaram Passenger,Pass,SCR,NDD,NIDADAVOLU JN,BVRM,Bhimavaram Junction,07:30:00,08:50:00,1.0,20.0,46.0,,0,0,0,0,0,0,ARH,AMHERA,NR,Uttar Pradesh,"Amhera, Uttar Pradesh",78.28580221,29.26223824
57286,Macherla Nadikode Passenger,Pass,SCR,MCLA,Macherla,NDKD,NADIKODE,13:05:00,14:05:00,1.0,0.0,35.0,57285,0,0,0,0,0,0,WRGN,WARIGAON NEWADA,NR,Uttar Pradesh,"Warigaon, Uttar Pradesh",82.56831600000001,25.586146
57328,Guntur Dhone Passenger,Pass,SWR,GNT,GUNTUR JN,DHNE,DHONE,12:10:00,22:30:00,10.0,20.0,333.0,57327,0,0,0,0,0,0,ATRR,ATRAURA,NER,Uttar Pradesh,"Handia, Uttar Pradesh",82.314016,25.316112
57412,Gudur Tirupati Fast Passenger,Pass,SCR,GDR,GUDUR JN,TPTY,TIRUPATI MAIN,10:55:00,13:00:00,2.0,5.0,93.0,57411,0,0,0,0,0,0,ZNP,Zindpura,NER,Uttar Pradesh,"State Highway 29, Uttar Pradesh",79.849699,28.191347
57469,Kurnool Town Guntakal Passenger,Pass,SCR,KRNT,KURNOOL TOWN,GTL,GUNTAKAL JN,18:50:00,22:10:00,3.0,20.0,122.0,57470,0,0,0,0,0,0,ATKS,Atwa Kursath,NR,Uttar Pradesh,"Atwa Kursath, Uttar Pradesh",80.2672099268,27.1345702672
57501,Nizamabad Bodhan Passenger,Pass,SCR,NZB,NIZAMABAD,BDHN,Bodhan,06:20:00,07:15:00,0.0,55.0,26.0,57502,0,0,0,0,0,0,ARP,Atrampur,NR,Uttar Pradesh,"Atrampur Railway Station, Uttar Pradesh",81.745663,25.572021
57503,Nizamabad Bodhan Passenger,Pass,SCR,NZB,NIZAMABAD,BDHN,Bodhan,18:30:00,19:25:00,0.0,55.0,26.0,57502,0,0,0,0,0,0,ARKA,Arkha,NR,Uttar Pradesh,"Lucknow Allahabad Rd, Uttar Pradesh",81.331277,25.867316
57512,Parbhani Purna Passenger,Pass,SCR,PBN,PARBHANI JN,NED,HUZUR SAHIB NANDED,09:30:00,11:30:00,2.0,0.0,59.0,,0,0,0,0,0,0,AUR,ATRAULI ROAD,NR,Uttar Pradesh,"Dibai, Uttar Pradesh",78.2201080066,28.0971879576
57542,Nanded Manmad Passenger,Pass,SCR,NED,HUZUR SAHIB NANDED,MMR,MANMAD JN,18:10:00,04:40:00,10.0,30.0,348.0,,0,0,0,0,0,0,BGQ,BHONGAON,NCR,Uttar Pradesh,"Mainpuri, Uttar Pradesh",79.1657234,27.2590416
57468,Dhone Kurnool Town Passenger,Pass,SCR,DHNE,DHONE,KRNT,KURNOOL TOWN,17:20:00,18:30:00,1.0,10.0,54.0,,0,0,0,0,0,0,BIP,BAHILPURWA,NCR,Uttar Pradesh,"National Highway 76, Uttar Pradesh",80.998599,25.137088
57473,Secunderabad Bodhan Passenger,Pass,SCR,SC,SECUNDERABAD JN,BDHN,Bodhan,17:00:00,22:45:00,5.0,45.0,186.0,,0,0,0,0,0,0,BGAN,Bangain,NER,Uttar Pradesh,"Bangain, Uttar Pradesh",81.90592400000001,27.238993
57552,Adilabad Purna Passenger,Pass,SCR,ADB,ADILABAD,PAU,PURNA JN,15:15:00,20:55:00,5.0,40.0,216.0,57551,0,0,0,0,0,0,BHLP,BHULANPUR,NER,Uttar Pradesh,"Varanasi, Uttar Pradesh",82.9575192,25.2878753
57553,Parli Vaijnath Adilabad Passenger,Pass,SCR,PRLI,PARLI VAIJNATH,ADB,ADILABAD,04:30:00,12:45:00,8.0,15.0,308.0,57554,0,0,0,0,0,0,BAHP,Band Hamirpur,NR,Uttar Pradesh,"State Highway 38, Uttar Pradesh",80.744382,26.32975
57625,Kakatiya Fast Passenger,Pass,SCR,SC,SECUNDERABAD JN,MUGR,Manuguru,18:40:00,04:30:00,9.0,50.0,331.0,57626,1,0,0,0,0,0,BBJ,Babaganj,NER,Uttar Pradesh,"Babaganj, Uttar Pradesh",81.568611,27.96429
51886,DAMOH BINA PASS,Pass,WCR,DMO,DAMOH,BINA,BINA JN,05:45:00,09:20:00,3.0,35.0,152.0,51885,0,0,0,0,0,0,BPM,BAGPAT ROAD,NR,Uttar Pradesh,"Bagpat, Uttar Pradesh",77.272589,28.957503
57686,Bijapur Solapur Passenger,Pass,SCR,BJP,BIJAPUR,SUR,SOLAPUR JN,00:05:00,02:30:00,2.0,25.0,110.0,57685,0,0,0,0,0,0,BMJ,Bridgemanganj,NER,Uttar Pradesh,"Bridgmanganj, Uttar Pradesh",83.197098,27.195537
58002,Puri Santargachi Passenger,Pass,SER,PURI,PURI,SRC,SANTRAGACHI JN,09:40:00,01:45:00,16.0,5.0,513.0,58003,0,0,0,0,0,0,BRK,Bahraich,NER,Uttar Pradesh,"Bahraich, Uttar Pradesh",81.6075183,27.581536
58008,Jajpur Keonjhar kharagpur,Pass,SER,JJKR,JAJPUR KEONJHAR ROAD,KGP,KHARAGPUR JN,05:45:00,11:10:00,5.0,25.0,222.0,58009,0,0,0,0,0,0,BRMX,Barmi,NR,Uttar Pradesh,"Barmi, Uttar Pradesh",80.56082099999999,27.489413
58022,Tatanagar Kharagpur MEMU Passenger,Pass,SER,TATA,TATANAGAR JN,KGP,KHARAGPUR JN,18:10:00,21:00:00,2.0,50.0,135.0,58021,0,0,0,0,0,0,ALNP,Akelahanspur Halt,NER,Uttar Pradesh,"Akelahanspur, Uttar Pradesh",80.31557099999999,28.34054
58025,Kharagpur-Hatia Passenger,Pass,SER,KGP,KHARAGPUR JN,HTE,HATIA,08:35:00,18:05:00,9.0,30.0,336.0,58026,0,0,0,0,0,0,AON,ARAON,NCR,Uttar Pradesh,"Araon, Uttar Pradesh",78.692248,27.114343
58112,ITWARI - TATANAGAR Passenger,Pass,SER,ITR,ITWARI,TATA,TATANAGAR JN,21:30:00,00:05:00,26.0,35.0,878.0,58111,1,0,0,0,0,0,BTJ,BISHNATHGANJ,NR,Uttar Pradesh,"Pratapgarh, Uttar Pradesh",81.935379,25.801897
58113,TATA BSP PASS,Pass,SER,TATA,TATANAGAR JN,BSP,BILASPUR JN,06:30:00,19:55:00,13.0,25.0,469.0,58114,0,0,0,0,0,0,BUS,BADAUSA,NCR,Uttar Pradesh,"National Highway 76, Uttar Pradesh",80.651011,25.248423000000003
58116,ROU CKP SARANDA PASSENGER,Pass,SER,ROU,ROURKELA,CKP,CHAKRADHARPUR,16:00:00,19:05:00,3.0,5.0,101.0,58115,0,0,0,0,0,0,BSZ,Bharwa Sumerpur,NCR,Uttar Pradesh,"Hamirpur, Uttar Pradesh",80.167419,25.825413
58204,Raipur Gevra Road Passenger,Pass,SECR,R,RAIPUR JN,GAD,Gevra Road,18:10:00,23:55:00,5.0,45.0,215.0,58203,0,0,0,0,0,0,AKS,ANKUSPUR,NER,Uttar Pradesh,"National Highway 29, Uttar Pradesh",83.4940121521,25.5713190547
58125,Sambalpur Jharsuguda Passenger,Pass,SER,SBP,SAMBALPUR,JSG,JHARSUGUDA JN,07:35:00,09:00:00,1.0,25.0,50.0,58124,0,0,0,0,0,0,BSUR,Bisalpur,NER,Uttar Pradesh,"Bisalpur, Uttar Pradesh",79.812599,28.290516
58133,Rourkela Jharsuguda Passenger,Pass,SER,ROU,ROURKELA,JSG,JHARSUGUDA JN,14:50:00,17:10:00,2.0,20.0,101.0,58134,0,0,0,0,0,0,BTRI,Bitrol,NER,Uttar Pradesh,"State Highway 33, Uttar Pradesh",78.92398,27.984069
58217,Titlagarh Raipur Passenger,Pass,SECR,TIG,TITLAGARH,R,RAIPUR JN,19:40:00,23:55:00,4.0,15.0,202.0,58218,0,0,0,0,0,0,BBW,BODARWAR,NER,Uttar Pradesh,"State Highway 64, Uttar Pradesh",83.6381910315,26.8780004923
58221,Chirmiri Chandia Passenger,Pass,SECR,CHRM,Chirmiri,CHD,CHANDIA ROAD,08:30:00,13:55:00,5.0,25.0,214.0,58222,1,0,0,0,1,0,BBA,BABRALA,NR,Uttar Pradesh,"Babrala, Uttar Pradesh",78.4034137,28.2664932
58223,Manendragarh Ambikapur Passang,Pass,SECR,MDGR,Manendragarh,ABKP,AMBIKAPUR,07:25:00,12:15:00,4.0,50.0,124.0,58224,0,0,0,0,0,0,ATE,ATARRA,NCR,Uttar Pradesh,"Dist. Banda(05192-224813), Uttar Pradesh",80.576491,25.291367
58417,Puri Gunupur Passenger,Pass,ECoR,PURI,PURI,GNPR,Gunupur,07:50:00,20:30:00,12.0,40.0,380.0,58418,0,0,0,0,0,0,BED,Baseri,NCR,Uttar Pradesh,"Baseri, Uttar Pradesh",77.54301509999999,26.74699159
58422,Puri Angul Fast Passenger,Pass,ECoR,PURI,PURI,ANGL,ANGUL,16:20:00,21:35:00,5.0,15.0,195.0,58421,0,0,0,0,0,0,ATW,Atwa Muthia Halt,NR,Uttar Pradesh,"Atwa Muthia, Uttar Pradesh",80.415479,27.27399
58423,Bhadrak Cuttack Passenger,Pass,ECoR,BHC,BHADRAKH,CTC,CUTTACK,14:10:00,17:40:00,3.0,30.0,116.0,58424,0,0,0,0,0,0,BGMU,Bangarmau,NR,Uttar Pradesh,"Bangarmau, Uttar Pradesh",80.22205951000001,26.89181589
58527,Raipur Vishakhapatnam Passenger,Pass,ECoR,R,RAIPUR JN,VSKP,VISHAKAPATNAM,05:30:00,22:00:00,16.0,30.0,529.0,58528,0,0,0,0,0,0,BARL,Baral,NR,Uttar Pradesh,"State Highway 18, Uttar Pradesh",77.80997500000001,28.494092
58434,Berhampur Cuttack Fast Passenger,Pass,ECoR,BAM,BRAHMAPUR,CTC,CUTTACK,07:30:00,11:45:00,4.0,15.0,194.0,58433,0,0,0,0,0,0,BNY,Barhni,NER,Uttar Pradesh,"Semari - Bisokhar Rd, Uttar Pradesh",82.7918337,27.4957951
58538,Visakhapatnam Rayagada Passenger,Pass,ECoR,VSKP,VISHAKAPATNAM,RGDA,RAYAGADA,05:45:00,10:40:00,4.0,55.0,186.0,58537,0,0,0,0,0,0,ALMW,ALMAW,NER,Uttar Pradesh,"Allahabad, Uttar Pradesh",82.489941,25.259915
58658,Lohardaga Ranchi Passenger,Pass,SER,LAD,Lohardaga,RNC,RANCHI,20:50:00,22:05:00,1.0,15.0,67.0,58657,0,0,0,0,0,0,BMY,Bamiana,NER,Uttar Pradesh,"To Vishartganj, Uttar Pradesh",79.3291058,28.26312382
58712,Dhamtari Telibandha Passenger,Pass,SECR,DTR,Dhamtari,TBD,Telibandha,06:30:00,09:35:00,3.0,5.0,68.0,58711,0,0,0,0,0,0,BHDR,Bhadri,NR,Uttar Pradesh,"National Highway 24B, Uttar Pradesh",81.56775470000001,25.6766583
58718,RAJIM TELIBANDHA PASS,Pass,?,RIM,Rajim,TBD,Telibandha,09:35:00,11:35:00,2.0,0.0,39.0,58717,0,0,0,0,0,0,BSCK,BASUCHAK,NER,Uttar Pradesh,"Basuchak-Rampur Mangha Rd, Uttar Pradesh",83.34822341,25.53140767
58722,RAJIM ABHANPUR PASS,Pass,SECR,RIM,Rajim,AVP,Abhanpur Junction,18:35:00,19:25:00,0.0,50.0,16.0,58721,0,0,0,0,0,0,BSY,BARSATHI,NR,Uttar Pradesh,"State Highway 36, Uttar Pradesh",82.473946,25.564133
58808,Wadsa Chanda Fort Passenger,Pass,SECR,WSA,Wadsa,CAF,Chanda Fort,07:00:00,09:50:00,2.0,50.0,137.0,,0,0,0,0,0,0,BSKR,BASI KIRATPUR,NR,Uttar Pradesh,"Kiratpur, Uttar Pradesh",78.213283,29.497228000000003
58815,Itwari Tirodi Passenger,Pass,SECR,ITR,ITWARI,TRDI,Tirodi,13:05:00,17:10:00,4.0,5.0,124.0,58816,0,0,0,0,0,0,BQP,Bighapur,NR,Uttar Pradesh,"State Highway 38, Uttar Pradesh",80.6934544,26.3551471
58701,Shahdol Ambikapur Passenger,Pass,SECR,SDL,SHAHDOL,ABKP,AMBIKAPUR,13:30:00,19:15:00,5.0,45.0,216.0,58702,1,0,0,0,0,0,BSWA,Baiswara,NR,Uttar Pradesh,"State Highway 38, Uttar Pradesh",80.83471200000001,26.284843
58847,Nagpur Nagbhir Passenger,Pass,?,NGP,NAGPUR,NAB,Nagbhir Junction,17:35:00,22:20:00,4.0,45.0,110.0,58848,0,0,0,0,0,0,CHBR,CHAURE BAZAR,NR,Uttar Pradesh,"State Highway 9, Uttar Pradesh",82.118735,26.469531
58849,Chhindwara Nainpur Passenger,Pass,SECR,CWA,Chhindwara Junction,NIR,Nainpur Junction,06:00:00,12:00:00,6.0,0.0,141.0,58850,0,0,0,0,0,0,DDW,DUDWA,NER,Uttar Pradesh,"Dudwa, Uttar Pradesh",80.672161,28.50831
58851,Chhindwara Nainpur Passenger,Pass,SECR,CWA,Chhindwara Junction,NIR,Nainpur Junction,08:30:00,14:30:00,6.0,0.0,141.0,58850,0,0,0,0,0,0,CIH,Chilhia,NER,Uttar Pradesh,"State Highway 1A, Uttar Pradesh",82.990864,27.35207
58871,Balaghat Jabalpur Passenger,Pass,SECR,BTC,Balaghat Junction,JBP,JABALPUR,20:45:00,06:00:00,9.0,15.0,187.0,58870,1,0,0,0,0,0,DOX,DOHNA,NER,Uttar Pradesh,"State Highway 37, Uttar Pradesh",79.432729,28.434064000000003
58876,Jabalpur Nainpur Passenger,Pass,?,JBP,JABALPUR,NIR,Nainpur Junction,15:10:00,20:50:00,5.0,40.0,111.0,,0,0,0,0,0,0,DMPR,DHARAMPUR,NR,Uttar Pradesh,"National Highway 93, Uttar Pradesh",78.265728,28.150306
59013,Bhusaval Passenger,Pass,WR,ST,SURAT,BSL,BHUSAVAL JN,23:25:00,09:15:00,9.0,50.0,336.0,59014,1,0,0,0,0,0,TKRU,TAKHRAU,NCR,Uttar Pradesh,"Takhrau, Uttar Pradesh",79.212452,27.274196
58840,Jabalpur Nir Nagpur Passenger,Pass,SECR,JBP,JABALPUR,NGP,NAGPUR,20:30:00,15:30:00,19.0,0.0,398.0,58839,1,0,0,0,0,0,DHRJ,DHIRGANJ,NR,Uttar Pradesh,"State Highway 9, Uttar Pradesh",81.924339,25.745642
59044,Dahanu Virar Shuttle,Pass,WR,DRD,DAHANU ROAD,VR,VIRAR,04:55:00,06:15:00,1.0,20.0,64.0,59043,0,0,0,0,0,0,DPSR,Dapsaura,NCR,Uttar Pradesh,"National Highway 86, Uttar Pradesh",80.202954,25.983503
59103,Vadodara Kathana Passenger,Pass,WR,BRC,VADODARA JN,KTNA,Kathana,09:30:00,11:50:00,2.0,20.0,73.0,59102,0,0,0,0,0,0,FRD,FARHEDI,NR,Uttar Pradesh,"Moradabad- Chandausi Rd, Uttar Pradesh",78.7937161591,28.711716968
59112,Bodeli Dabhoi Passenger,Pass,WR,BDE,Bodeli,DB,Dabhoi Junction,10:05:00,11:40:00,1.0,35.0,34.0,,0,0,0,0,0,0,FTC,Fatehpur Chursi,NR,Uttar Pradesh,"State Highway 38, Uttar Pradesh",80.26179,26.843511
59115,Anand Godhra Passenger,Pass,WR,ANND,ANAND JN,GDA,GODHRA JN,14:05:00,16:30:00,2.0,25.0,78.0,59116,0,0,0,0,0,0,GNGL,Gangauli,NER,Uttar Pradesh,"Jaunpur, Uttar Pradesh",82.86309299999999,25.668107000000003
59117,Pratapnagar Bodeli Passenger,Pass,WR,PRTN,Pratapnagar,BDE,Bodeli,07:10:00,09:05:00,1.0,55.0,63.0,,0,0,0,0,0,0,GRRG,GURLI RAMGARHWA,NER,Uttar Pradesh,"Ghughli Bazar, Uttar Pradesh",83.771432,27.185739
59122,Bodeli Pratapnagar Passenger,Pass,WR,BDE,Bodeli,PRTN,Pratapnagar,10:30:00,12:40:00,2.0,10.0,63.0,59121,0,0,0,0,0,0,DYK,DUDHIA KHURD,NER,Uttar Pradesh,"State Highway 21, Uttar Pradesh",80.19780499999999,28.46474
59207,Bhavnagar Okha Passenger,Pass,WR,BVC,BHAVNAGAR TERMINUS,OKHA,OKHA,21:25:00,13:20:00,15.0,55.0,538.0,59208,1,0,0,0,0,0,DXN,DUDDHINAGAR,ECR,Uttar Pradesh,"Sonebhadra, Uttar Pradesh",83.21679153630001,24.2090318514
59225,Bhavnagar Mahuva Passenger,Pass,WR,BVC,BHAVNAGAR TERMINUS,MHV,MAHUVA JN,09:25:00,14:10:00,4.0,45.0,203.0,59226,0,0,0,0,0,0,GHRI,Ghori Halt,NR,Uttar Pradesh,"sharda nehar, Uttar Pradesh",80.503293,27.373959
59226,Mahuva Bhavnagar Passenger,Pass,WR,MHV,MAHUVA JN,BVP,BHAVANAGAR PARA,14:30:00,19:40:00,5.0,10.0,220.0,59225,0,0,0,0,0,0,GJMB,Ganjmuradabad,NR,Uttar Pradesh,"Sharda Nehar, Uttar Pradesh",80.177008,26.987889000000003
59227,Botad Bhavnagar Passenger,Pass,WR,BTD,BOTAD JN,BVC,BHAVNAGAR TERMINUS,21:10:00,23:25:00,2.0,15.0,93.0,59228,0,0,0,0,0,0,GAJU,Gaju Halt,NR,Uttar Pradesh,"State Highway 25, Uttar Pradesh",80.37297299999999,27.204231
59267,Palitana Bhavnagar Passenger,Pass,WR,PIT,Palitana,BVC,BHAVNAGAR TERMINUS,08:10:00,09:40:00,1.0,30.0,49.0,59268,0,0,0,0,0,0,HA,HARGAON,NER,Uttar Pradesh,"Hargaon, Uttar Pradesh",80.728229,27.769192
59319,Ujjain Bhopal Passenger,Pass,WR,UJN,UJJAIN JN,BPL,BHOPAL JN,17:05:00,21:50:00,4.0,45.0,184.0,59320,0,0,0,0,0,0,HZN,Hazrat Nagar Halt,NR,Uttar Pradesh,"Hazrat Nagar, Uttar Pradesh",78.665909,28.633331
59341,Nagda Bina Passenger,Pass,WR,NAD,NAGDA JN,BINA,BINA JN,11:35:00,23:25:00,11.0,50.0,429.0,59342,0,0,0,0,0,0,GSGJ,Ghausganj,NR,Uttar Pradesh,"Ghausganj, Uttar Pradesh",80.2918266571,27.135126874500003
59440,Ahmedabad Passenger,Pass,WR,ADI,AHMEDABAD JN,BVI,BORIVALI,23:00:00,14:00:00,15.0,0.0,462.0,,0,0,0,0,0,0,JRQ,JHAROKHAS,ECR,Uttar Pradesh,"National Highway 75, Uttar Pradesh",83.164150647,24.1796156953
59441,Mumbai Central-Ahmedabad Passenger,Pass,WR,BCT,Mumbai Central,ADI,AHMEDABAD JN,22:40:00,14:55:00,16.0,15.0,491.0,59442,1,0,1,0,0,0,JEA,Nakaha Jungle,NER,Uttar Pradesh,"Gorakhpur, Uttar Pradesh",83.360755,26.803135
59512,Viramgam Mahesana,Pass,WR,VG,VIRAMGAM JN,MSH,MAHESANA JN,16:25:00,18:20:00,1.0,55.0,66.0,59511,0,0,0,0,0,0,KD,KUNDARKHI,NR,Uttar Pradesh,"Kundarki, Uttar Pradesh",78.7880650638,28.6804444288
59601,Beawar Ajmer Passenger,Pass,NWR,BER,BEAWAR,AII,AJMER JN,07:45:00,09:05:00,1.0,20.0,53.0,59602,0,0,0,0,0,0,CKTD,CHITRAKUTDHAM KARWI,NCR,Uttar Pradesh,"Chitrakoot Karvi, Uttar Pradesh",80.922775,25.217611
59716,Rewari Phulera Passenger,Pass,NWR,RE,REWARI,FL,PHULERA JN,05:30:00,10:30:00,5.0,0.0,216.0,59715,0,0,0,0,0,0,CHTT,Chitta Halt,NCR,Uttar Pradesh,"Chitta Halt, Uttar Pradesh",77.53707700000001,17.823439
59718,Rewari Phulera Passenger,Pass,NWR,RE,REWARI,FL,PHULERA JN,19:05:00,23:55:00,4.0,50.0,216.0,59717,0,0,0,0,0,0,CKSR,Chak Safaura Halt,NER,Uttar Pradesh,"Mighauna, Uttar Pradesh",79.842478,28.211203
59721,Jaipur Hisar Passenger,Pass,NWR,JP,JAIPUR,HSR,Hisar,05:15:00,13:40:00,8.0,25.0,369.0,59722,0,0,0,0,0,0,CHWT,Chhaprawat,NR,Uttar Pradesh,"SH 18, Uttar Pradesh",77.79989095580001,28.541970328
59723,Rewari Sadulpur Passenger,Pass,NWR,RE,REWARI,HSR,Hisar,07:15:00,12:15:00,5.0,0.0,211.0,59724,1,0,0,0,0,0,KEMR,KEMRI,NER,Uttar Pradesh,"MDR 33W, Uttar Pradesh",79.19779600000001,28.809864
59725,Rewari Sadulpur Passenger,Pass,NWR,RE,REWARI,HSR,Hisar,18:55:00,00:20:00,5.0,25.0,211.0,59726,1,0,0,0,0,0,CPU,CHOPAN,ECR,Uttar Pradesh,"Chopan, Uttar Pradesh",83.025843,24.51403
59802,Jaipur Nagda Fast Passenger,Pass,WR,JP,JAIPUR,NAD,NAGDA JN,23:30:00,11:15:00,11.0,45.0,465.0,,1,1,1,0,0,0,KJA,KHAJURHAT,NR,Uttar Pradesh,"Bikapur, Uttar Pradesh",82.126813,26.525308
59805,Bayana Jaipur Fast Passenger,Pass,WR,JP,JAIPUR,BXN,BAYANA JN,06:45:00,13:05:00,6.0,20.0,273.0,59806,0,0,0,0,0,0,DBD,DEOBAND,NR,Uttar Pradesh,"Deoband, Uttar Pradesh",77.67087339999999,29.6800315
59813,Kota Agra Yamuna Bridge Passenger,Pass,WR,KOTA,KOTA JN,JAB,YAMUNA BRIDGE AGRA,07:15:00,17:25:00,10.0,10.0,336.0,,0,0,0,0,0,0,CUK,CHURK,NCR,Uttar Pradesh,"State Highway 14, Uttar Pradesh",83.1032006,24.6496787
59821,KOTA - BHIND Passenger,Pass,WCR,KOTA,KOTA JN,BIX,BHIND,22:05:00,14:40:00,16.0,35.0,495.0,59822,1,0,0,0,0,0,KHRY,KHAIRAHI,NCR,Uttar Pradesh,"State Highway 5, Uttar Pradesh",82.9857744763,24.8020366077
63250,Gaya Patna Passenger MEMU,MEMU,ECR,GAYA,GAYA JN,PNBE,PATNA JN,12:25:00,15:20:00,2.0,55.0,92.0,63249,0,0,0,0,0,0,KRYA,KURRAIYA,NER,Uttar Pradesh,"Chauhan Rd, Uttar Pradesh",80.24421199999999,28.416819
63252,Gaya Patna Passenger MEMU,MEMU,ECR,GAYA,GAYA JN,PNBE,PATNA JN,15:00:00,18:00:00,3.0,0.0,92.0,63251,0,0,0,0,0,0,KPKI,QASIMPUR KHERI,NR,Uttar Pradesh,"State Highway 57, Uttar Pradesh",77.28593,29.18277
63254,Gaya Patna Passenger MEMU,MEMU,ECR,GAYA,GAYA JN,PNBE,PATNA JN,18:10:00,21:35:00,3.0,25.0,92.0,63255,0,0,0,0,0,0,KPE,Kauwapur,NER,Uttar Pradesh,"MDR 10E, Uttar Pradesh",82.2979015082,27.5158216097
63515,Barddhaman Asansol mEMU,MEMU,ER,BWN,BARDDHAMAN JN,ASN,ASANSOL JN,12:05:00,13:55:00,1.0,50.0,106.0,,0,0,0,0,0,0,LPW,Loharpurwa,NER,Uttar Pradesh,"Loharpurwa, Uttar Pradesh",83.268484,27.082641
63521,Barddhaman Asansol mEMU,MEMU,ER,BWN,BARDDHAMAN JN,ASN,ASANSOL JN,16:05:00,17:55:00,1.0,50.0,106.0,,0,0,0,0,0,0,LER,Lehra,NER,Uttar Pradesh,"Lehra Railway Station Rd, Uttar Pradesh",83.23414199999999,27.161243
63567,Asansol Jhajha Passenger,MEMU,ER,ASN,ASANSOL JN,JAJ,JHAJHA,09:35:00,12:55:00,3.0,20.0,154.0,63568,0,0,0,0,0,0,KTRR,Kathara Road,NCR,Uttar Pradesh,"Kanpur Nagar, Uttar Pradesh",80.228735,26.310011
63568,jhajha asansol memu,MEMU,ER,JAJ,JHAJHA,ASN,ASANSOL JN,13:20:00,16:40:00,3.0,20.0,155.0,63567,0,0,0,0,0,0,KWW,Kuswa,NCR,Uttar Pradesh,"MDR 106W, Uttar Pradesh",78.40369700000001,27.473814
63593,Purulia Asansol MEMU Passenger,MEMU,ER,PRR,PURULIA JN,ASN,ASANSOL JN,14:20:00,16:45:00,2.0,25.0,80.0,63594,0,0,0,0,0,0,MAH,Madhoganj,NR,Uttar Pradesh,"Hardoi, Uttar Pradesh",80.135457,27.117963000000003
64095,Shakurbasti New Delhi Parikrama,Del,NR,NDLS,NEW DELHI,SSB,SHAKURBASTI,09:35:00,10:43:00,1.0,8.0,28.0,,0,0,0,0,0,0,MJPB,Manjhra Purab,NER,Uttar Pradesh,"Manjhra Purab, Uttar Pradesh",81.160402,28.300646
13257,DANAPUR - DELHI ANAND VIHAR Jan Sadharan Express,,,DNR,DANAPUR,ANVT,ANAND VIHAR TRM,,,,,,13258,0,0,0,0,0,0,MAY,MARIAHU,NR,Uttar Pradesh,"Mariahu, Uttar Pradesh",82.598166,25.597006
12163,DADAR - CHENNAI EGMORE SF Exp,,,DR,MUMBAI DADAR CENTRAL,MS,CHENNAI EGMORE,,,,,,12164,1,1,1,1,0,0,KDRD,KHULDIL ROAD,ECR,Uttar Pradesh,"Obra, Uttar Pradesh",82.86161,24.368372
12495,BIKANER - KOLKATA CHITPUR Pratap Exp,SF,NR,BKN,BIKANER JN,KOAA,KOLKATA CHITPUR,05:30:00,13:15:00,31.0,45.0,1873.0,12496,1,1,1,0,0,0,MHBZ,Mahtha Bazar,NER,Uttar Pradesh,"Mahtha Bazar, Uttar Pradesh",82.957379,27.391561
12513,SECUNDERABAD - GUWAHATI Exp,SF,NER,SC,SECUNDERABAD JN,GHY,GUWAHATI,07:30:00,05:50:00,46.0,20.0,2551.0,12514,1,1,1,0,0,0,MIM,Maniram,NER,Uttar Pradesh,"National Highway 29, Uttar Pradesh",83.342407,26.838267
12661,CHENNAI EGMORE - SENGOTTAI Pothigai SF Exp,SF,SR,MS,CHENNAI EGMORE,SCT,SENGOTTAI,20:05:00,08:15:00,12.0,10.0,670.0,12662,1,1,1,0,0,0,MNJR,Manjhlepur,NR,Uttar Pradesh,"State Highway 38, Uttar Pradesh",81.178625,25.994578
18107,ROURKELA - KORAPUT Exp,Exp,SER,ROU,ROURKELA,KRPU,KORAPUT,16:45:00,07:30:00,14.0,45.0,645.0,18108,1,1,0,0,0,0,MUUA,MAHUAWA KHURD,NER,Uttar Pradesh,"State Highway 64, Uttar Pradesh",83.59392199999999,26.854361
56100,ERODE - METUR DAM PASSENGER,,,ED,ERODE JN,MTDM,METUR DAM,,,,,,56101,0,0,0,0,0,0,MPG,Manpur Nagaria,NER,Uttar Pradesh,"State Highway 33, Uttar Pradesh",78.818201,27.908304
58161,HATIA - JHARSUGUDA Passenger (UnReserved),Pass,SER,HTE,HATIA,JSG,JHARSUGUDA JN,11:50:00,19:20:00,7.0,30.0,264.0,58162,0,0,0,0,0,0,NBUE,NIBKARORI,NCR,Uttar Pradesh,"Nibkarori, Uttar Pradesh",79.40995965580001,27.3287489158
14115,Haridwar Express,Exp,NCR,ALD,ALLAHABAD JN,HW,HARIDWAR JN,23:35:00,14:30:00,14.0,55.0,725.0,14116,1,1,1,0,0,0,NM,Naimisharanya,NR,Uttar Pradesh,"MDR 74C, Uttar Pradesh",80.484435,27.355137
19025,Surat Bhavnagar Express Slip,Exp,WR,ST,SURAT,MHV,MAHUVA JN,05:30:00,17:20:00,11.0,50.0,629.0,19026,1,1,0,0,0,0,NHF,Nihasta Halt,NR,Uttar Pradesh,"State Highway 38, Uttar Pradesh",80.92503500000001,26.212313
47173,Lingampalli Falaknuma MMTS,Hyd,SCR,LPI,LINGAMPALLI,FM,KACHEGUDA FALAKNUMA,06:20:00,07:40:00,1.0,20.0,37.0,,0,0,0,0,0,0,NNP,Nanpara Junction,NER,Uttar Pradesh,"Nanpara, Uttar Pradesh",81.512594,27.859887
51285,Bhusaval Nagpur Passenger,Pass,CR,BSL,BHUSAVAL JN,NGP,NAGPUR,19:30:00,08:45:00,13.0,15.0,392.0,51286,0,0,0,0,0,0,NPR,Nepalganj Road,NER,Uttar Pradesh,"Midwest, Uttar Pradesh",81.60073,28.010872
53069,Barddhaman Rampurhat Passenger,Pass,ER,BWN,BARDDHAMAN JN,RPH,RAMPUR HAT,20:10:00,22:40:00,2.0,30.0,112.0,53068,0,0,0,0,0,0,NTV,Nautanwa,NER,Uttar Pradesh,"Nautanwa, Uttar Pradesh",83.42129700000001,27.42688
53601,Gaya Dehri On Sone Passenger,Pass,ECR,GAYA,GAYA JN,DOS,DEHRI ON SONE,11:55:00,14:15:00,2.0,20.0,85.0,53602,0,0,0,0,0,0,PKNA,PAKHNA,NCR,Uttar Pradesh,"Pakhna, Uttar Pradesh",79.304318,27.302522
54101,Allahabad Kanpur Passenger,Pass,NCR,ALD,ALLAHABAD JN,CNB,KANPUR CENTRAL,16:45:00,23:05:00,6.0,20.0,214.0,54102,0,0,0,0,0,0,PPH,PIPRI DIH,NER,Uttar Pradesh,"State Highway 67, Uttar Pradesh",83.500574,25.879046
54336,Kanpur Balamau Passenger,Pass,NR,CNB,KANPUR CENTRAL,BLM,BALAMU JN,15:25:00,19:30:00,4.0,5.0,117.0,54335,0,0,0,0,0,0,PPU,PIPARPUR,NR,Uttar Pradesh,"State Highway 9, Uttar Pradesh",82.038949,26.137823
59380,Maksi Indore Bg Passenger,Pass,WR,MKC,MAKSI,INDB,INDORE JN BG,09:50:00,11:30:00,1.0,40.0,75.0,59379,0,0,0,0,0,0,BNDA,BANDA JN,NCR,Uttar Pradesh,"Banda(05192-224813), Uttar Pradesh",80.336246,25.477677
63518,Asansol Barddhaman Passenger,MEMU,ER,ASN,ASANSOL JN,BWN,BARDDHAMAN JN,12:40:00,14:30:00,1.0,50.0,105.0,63519,0,0,0,0,0,0,PDR,Payagpur,NER,Uttar Pradesh,"State Highway 30, Uttar Pradesh",81.776186,27.407067
12797,Venkatadri SF Express,SF,SCR,KCG,KACHEGUDA,CTO,CHITTOOR,20:05:00,08:55:00,12.0,50.0,707.0,12798,1,1,1,1,0,0,PPW,Pachperwa,NER,Uttar Pradesh,"Semari - Bisokhar Rd, Uttar Pradesh",82.657808,27.528038
17640,AKOLA - KACHEGUDA Intercity Exp,Exp,SCR,AK,AKOLA JN,KCG,KACHEGUDA,09:30:00,20:15:00,10.0,45.0,514.0,17639,0,0,0,0,0,1,PRSP,PRASADPUR,NER,Uttar Pradesh,"Prasadpur, Uttar Pradesh",80.08117200000001,28.54694
17651,Chennai Egmore Kacheguda Express,Exp,SCR,MS,CHENNAI EGMORE,KCG,KACHEGUDA,17:00:00,07:55:00,14.0,55.0,772.0,17652,1,1,1,0,0,0,PJ,Peppeganj,NER,Uttar Pradesh,"Sahibganj, Uttar Pradesh",83.294438,26.930569
55335,Bareilly Lalkua Pass,Pass,?,BE,BAREILLY,LKU,LAL KUAN,06:00:00,08:30:00,2.0,30.0,84.0,,0,0,0,0,0,0,PP,PURANPUR,NER,Uttar Pradesh,"Puranpur, Uttar Pradesh",80.150951,28.514911
57620,Delta Fast Passenger,Pass,SCR,KCG,KACHEGUDA,RAL,Repalle,20:15:00,06:20:00,10.0,5.0,347.0,57619,1,0,0,0,0,0,RDV,Radha Balampur,NR,Uttar Pradesh,"State Highway 13A, Uttar Pradesh",81.107034,26.083856
12240,Jaipur-Mumbai Central AC Duronto Express,Drnt,WR,JP,JAIPUR,BCT,Mumbai Central,19:15:00,12:05:00,16.0,50.0,1159.0,12239,0,1,1,1,0,0,RGU,Ragaul,NCR,Uttar Pradesh,"Maudaha, Uttar Pradesh",80.129683,25.686945
12335,BHAGALPUR - MUMBAI LTT SF Exp,SF,ER,BGP,BHAGALPUR,LTT,LOKMANYA TILAK TERM,09:00:00,20:00:00,35.0,0.0,1917.0,12336,1,1,1,0,0,0,PTYR,Patiyara,NR,Uttar Pradesh,"Patiyara, Uttar Pradesh",80.476502,26.627948
13352-Slip,Alappuzha Dhanbad Tatanagar Express Slip,Exp,ECR,ALLP,ALLEPPEY,TATA,TATANAGAR JN,06:00:00,09:10:00,51.0,10.0,2359.0,,1,1,1,0,0,0,SFPR,Safipur,NR,Uttar Pradesh,"Unnao, Uttar Pradesh",80.35476700000001,26.744344
52081,Jaipur Loharu Fast Passenger,Pass,NWR,JP,JAIPUR,LHU,Loharu,04:40:00,11:30:00,6.0,50.0,229.0,52082,0,0,0,0,0,0,SBZ,SISWA BAZAR,NER,Uttar Pradesh,"Siswa Bazar, Uttar Pradesh",83.7563490747,27.1495669522
53021,Azimganj Bhagalpur Passenger,Pass,ER,AZ,AZIMGANJ JN,BGP,BHAGALPUR,03:05:00,11:05:00,8.0,0.0,226.0,53022,0,0,0,0,0,0,SDT,SADAT,NER,Uttar Pradesh,"Mahpur Sadat Marg, Uttar Pradesh",83.308384,25.673309
53443,Mandar Hill Bhagalpur Passenger,Pass,ER,MDLE,Mandar Hill,BGP,BHAGALPUR,12:15:00,14:20:00,2.0,5.0,50.0,53444,0,0,0,0,0,0,RJI,RAJAWARI,NER,Uttar Pradesh,"National Highway 29, Uttar Pradesh",83.130772,25.497689
57624,Guntur Kacheguda Pass,Pass,SCR,GNT,GUNTUR JN,KCG,KACHEGUDA,05:15:00,22:20:00,17.0,5.0,623.0,57623,0,0,0,0,0,0,SKGH,SAKTESGARH,NCR,Uttar Pradesh,"Saktesgarh Railway Station, Uttar Pradesh",82.821887,24.999741
58812,Itwari Ramtek Passenger,Pass,?,ITR,ITWARI,RTK,Ramtek,19:10:00,20:30:00,1.0,20.0,38.0,58813,0,0,0,0,0,0,SRU,SALEMPUR JN,NER,Uttar Pradesh,"Salempur, Uttar Pradesh",83.923271,26.298048
58845,Itwari Nagbahir Passenger,Pass,?,ITR,ITWARI,NAB,Nagbhir Junction,11:00:00,15:25:00,4.0,25.0,106.0,58846,0,0,0,0,0,0,SNAP,SONA ARJUNPUR,NR,Uttar Pradesh,"State Highway 57, Uttar Pradesh",77.4525283289,29.7582805083
05649,Mumbai LTT - Kamakhya (Weekly) Special,Exp,NFR,LTT,LOKMANYA TILAK TERM,KYQ,KAMAKHYA,15:50:00,21:55:00,54.0,5.0,2665.0,05650,1,1,0,0,0,0,SIRA,Sirhi Itara,NCR,Uttar Pradesh,"Sirhiltara, Uttar Pradesh",80.21523499999999,26.367008
01101,Mumbai LTT - Gwalior (Weekly) Special,Exp,CR,LTT,LOKMANYA TILAK TERM,GWL,GWALIOR JN,15:50:00,15:35:00,23.0,45.0,1216.0,01102,1,1,0,0,0,0,SOT,Shohratgarh,NER,Uttar Pradesh,"Railway Station, Uttar Pradesh",82.96929300000001,27.374711
04727,Bikaner-Mumbai BandraT SF Special,SF,NWR,BKN,BIKANER JN,BDTS,MUMBAI BANDRA TERMINUS,15:00:00,12:55:00,21.0,55.0,1212.0,04728,1,1,1,0,0,0,SRMP,Sirsi Mukhdumpr,NR,Uttar Pradesh,"Sirsi Mukhdumpr, Uttar Pradesh",78.635169,28.633209
12001,Bhopal-New Delhi Shatabdi Express,Shtb,NR,BPL,BHOPAL JN,NDLS,NEW DELHI,14:40:00,22:30:00,7.0,50.0,701.0,12002,0,0,0,1,0,1,SUNM,SUNAMAI HALT,NR,Uttar Pradesh,"Sunamai, Uttar Pradesh",78.22052500000001,28.097372
12071,Mumbai Aurangabad Jan Shatabdi,JShtb,SCR,CSTM,MUMBAI CST,AWB,AURANGABAD,13:50:00,20:35:00,6.0,45.0,374.0,12072,0,0,0,0,0,1,THW,THARWAI,NR,Uttar Pradesh,"Tharwai, Uttar Pradesh",81.91469331479999,25.5392188568
12142,PATLIPUTRA - MUMBAI LTT SF Exp,SF,CR,PPTA,PATLIPUTRA,LTT,LOKMANYA TILAK TERM,10:40:00,15:30:00,28.0,50.0,1714.0,12141,1,1,1,0,0,0,TBTN,THANA BHAWAN TN,NR,Uttar Pradesh,"Thana Bhawan, Uttar Pradesh",77.402047,29.58113
55542,Phulwaria Hajipur Passenger,Pass,NER,BHBR,Bathua Bazar,HJP,HAJIPUR JN,05:00:00,10:20:00,5.0,20.0,0.0,,0,0,0,0,0,0,SZN,Shahbaznagar,NER,Uttar Pradesh,"Shahbaznagar, Uttar Pradesh",79.88703000000001,27.928906
12394,Sampoorna Kranti Express,SF,ER,NDLS,NEW DELHI,RJPB,RAJENDRA NAGAR BIHAR,17:30:00,07:35:00,14.0,5.0,1001.0,12393,1,1,1,1,0,0,SUBR,Subhagpur,NER,Uttar Pradesh,"MDR 10E, Uttar Pradesh",82.01764299999999,27.26251
12471,Mumbai Bandra (T.) - Jammu Tawi SF Swaraj Express,SF,NR,BDTS,MUMBAI BANDRA TERMINUS,JAT,JAMMU TAWI,07:55:00,14:45:00,30.0,50.0,1950.0,12472,1,1,1,0,0,0,TNUE,TINDAULI,NCR,Uttar Pradesh,"Tindauli, Uttar Pradesh",78.92129,27.183053
12619,MUMBAI LTT - MANGALORE CENT Matsyagandha Exp,SF,SR,LTT,LOKMANYA TILAK TERM,MAQ,MANGALORE CNTL,15:20:00,07:30:00,16.0,10.0,1185.0,12620,1,1,1,0,0,0,TTI,TURTIPAR,NER,Uttar Pradesh,"Mujouna Gawn, Uttar Pradesh",83.89084100000001,26.16121
12258,Kochuveli-Yesvantpur Garib Rath,GR,SWR,KCVL,KOCHUVELI,YPR,YESVANTPUR JN,16:35:00,09:05:00,16.0,30.0,808.0,12257,0,1,0,0,0,0,URPR,UGRASENPUR,NR,Uttar Pradesh,"Janghai, Uttar Pradesh",82.189171,25.568212
12350,NewDelhi-Bhagalpur Weekly SF Express,SF,ER,NDLS,NEW DELHI,BGP,BHAGALPUR,23:45:00,20:00:00,20.0,15.0,1220.0,12349,1,1,0,0,0,0,UNLA,UNAULA,NER,Uttar Pradesh,"Gorakhpur, Uttar Pradesh",83.471435,26.788432
12633,CHENNAI EGMORE - KANNIYAKUMARI SF Exp,SF,SR,MS,CHENNAI EGMORE,CAPE,KANYAKUMARI,17:30:00,06:50:00,13.0,20.0,742.0,12634,1,1,1,1,0,0,TPB,Trilokpur,NER,Uttar Pradesh,"Semari - Bisokhar Rd, Uttar Pradesh",82.701077,27.508190000000003
12542,Mumbai LTT-Gorakhpur SF Express,SF,NER,LTT,LOKMANYA TILAK TERM,GKP,GORAKHPUR JN,11:10:00,17:45:00,30.0,35.0,1680.0,12541,1,1,1,0,0,0,DBNR,Dibnapur,NER,Uttar Pradesh,"Dibnapur, Uttar Pradesh",79.51619,28.524363
12653,Tiruchirappalli Mangalore Weekly Superfast Express,SF,SR,TPJ,TIRUCHIRAPPALLI,MAQ,MANGALORE CNTL,18:00:00,05:25:00,11.0,25.0,635.0,12654,1,1,1,1,0,0,UJH,Ujhani,NER,Uttar Pradesh,"Ujhani, Uttar Pradesh",79.01491,27.995236
12463-Slip,Rajasthan Sampark Kranti Express Slip,SKr,NR,DEE,DELHI SARAI ROHILLA,BKN,BIKANER JN,22:35:00,10:35:00,12.0,0.0,685.0,,1,1,1,0,0,0,UBN,Ubarni,NR,Uttar Pradesh,"National Highway 24B, Uttar Pradesh",81.163629,26.118214
12687-Slip,Chennai Chandigarh Express Slip,SF,SR,MAS,CHENNAI CENTRAL,DDN,DEHRADUN,09:45:00,05:00:00,43.0,15.0,2488.0,12688,1,1,0,0,0,0,MRPR,MAU RANIPUR,NCR,Uttar Pradesh,"NH 75, Uttar Pradesh",79.136793,25.261271
12826,Jharkhand Sampark Kranti Express,SKr,SER,NDLS,NEW DELHI,RNC,RANCHI,07:10:00,04:55:00,21.0,45.0,1309.0,12825,1,1,1,0,0,0,VZPH,Vazeerpur Halt,NER,Uttar Pradesh,"Lilhar Mudia Link Rd, Uttar Pradesh",79.86398899999999,28.148542000000003
12857,Tamralipta Express,SF,SER,HWH,HOWRAH JN,DGHA,Digha Flag Station,06:40:00,10:00:00,3.0,20.0,189.0,12858,0,0,0,0,0,1,YFP,YUSUFPUR,NER,Uttar Pradesh,"MDR 94E, Uttar Pradesh",83.74868400000001,25.639006
52401,Ratangarh Sardarshahar Passenger,Pass,NWR,RTGH,Ratangarh Junction,SRDR,Sardarshahr,07:15:00,08:50:00,1.0,35.0,46.0,52402,0,0,0,0,0,0,KSJF,Kasganj Mg,NER,Uttar Pradesh,"Kasganj, Uttar Pradesh",78.64517,27.801268
12950,K SANTRAGANCHI - PORBANDAR Kavi Guru SF Exp,SF,WR,SRC,SANTRAGACHI JN,PBR,PORBANDAR,21:25:00,21:00:00,47.0,35.0,2658.0,12949,1,1,1,0,0,0,AGY,AGORI KHAS,NCR,Uttar Pradesh,"State Highway 5, Uttar Pradesh",83.056105,24.59896
18001,Kandari Express,Exp,SER,HWH,HOWRAH JN,DGHA,Digha Flag Station,14:15:00,17:50:00,3.0,35.0,189.0,18002,0,0,0,0,0,1,JNU,JAUNPUR JN,NR,Uttar Pradesh,"Jaunpur, Uttar Pradesh",82.69969599999999,25.762849
52244,AISHBAGH - PILIBHIT PASSENGER,Pass,NER,ASSH,AISHBAGH,PBE,PILIBHIT JN,11:40:00,23:20:00,11.0,40.0,316.0,52243,0,0,0,0,0,0,BXLL,BILLI,ECR,Uttar Pradesh,"Obra, Uttar Pradesh",83.011944,24.453381
41021,Chennai Beach Velachery EMU,MEMU,SR,MSB,CHENNAI BEACH,VLCY,Velachery,07:35:00,08:15:00,0.0,40.0,18.0,,0,0,0,0,0,0,BEJ,Beniganj,NR,Uttar Pradesh,"Sitapur, Uttar Pradesh",80.440599,27.299916
51189,ITARSI - ALLAHABAD Passenger,Pass,CR,ET,ITARSI JN,ALD,ALLAHABAD JN,08:30:00,10:05:00,25.0,35.0,612.0,51190,0,0,0,0,0,0,SPB,Sonekpur Halt,NR,Uttar Pradesh,"Bilari, Uttar Pradesh",78.69314200000001,28.630277
47167,Falaknuma Lingampalli MMTS,Hyd,SCR,FM,KACHEGUDA FALAKNUMA,LPI,LINGAMPALLI,19:35:00,20:55:00,1.0,20.0,37.0,,0,0,0,0,0,0,PQN,Pariawan Kalakankar Road,NR,Uttar Pradesh,"Pwn Klaknder Rd, Uttar Pradesh",81.368601,25.825794
51261,Amravati Wardha Passenger,Pass,WCR,AMI,Amravati,WR,WARDHA JN,15:15:00,18:05:00,2.0,50.0,101.0,51262,0,0,0,0,0,0,BEM,Budaun,NER,Uttar Pradesh,"Badaun, Uttar Pradesh",79.1360237,28.0274922
51673,ITARSI - SATNA Passenger,Pass,CR,ET,ITARSI JN,STA,SATNA,04:00:00,12:40:00,8.0,40.0,434.0,51674,0,0,0,0,0,0,MOTA,MOTA,NCR,Uttar Pradesh,"Mota, Uttar Pradesh",79.2537294641,27.2889777447
52451,Shivalik Deluxe Express,Exp,NR,KLK,Kalka,SML,Shimla,05:30:00,10:15:00,4.0,45.0,96.0,52452,0,0,0,0,0,1,NOH,Nigohi,NER,Uttar Pradesh,"Nigohi, Uttar Pradesh",79.8785035535,28.0989194076
52452,Shivalik Deluxe Express,Exp,NR,SML,Shimla,KLK,Kalka,17:40:00,22:25:00,4.0,45.0,96.0,52453,0,0,0,0,0,1,AIH,ALAWALPUR I PUR,NR,Uttar Pradesh,"Alawalpur, Uttar Pradesh",77.27163889890001,29.0477960432
52457,Kalka Shimla Passenger,Pass,NR,KLK,Kalka,SML,Shimla,04:00:00,09:20:00,5.0,20.0,96.0,52456,0,0,0,0,1,0,BYH,BHITI,NER,Uttar Pradesh,"Handia, Uttar Pradesh",82.261348,25.333548
54005,Delhi Bhiwani Passenger,Pass,NR,DLI,OLD DELHI,BNW,Bhiwani,04:40:00,08:15:00,3.0,35.0,119.0,,0,0,0,0,0,0,RJK,RAJA KA SAHASPUR,NR,Uttar Pradesh,"Bilari, Uttar Pradesh",78.780097,28.626216
55611,Fakiragram Kamakhya Passenger,Pass,NFR,FKM,FAKIRAGRAM JN,KYQ,KAMAKHYA,11:00:00,16:25:00,5.0,25.0,214.0,55612,0,0,0,0,0,0,TJD,TAJPUR DEHMA,NER,Uttar Pradesh,"Gosalpur Rd, Uttar Pradesh",83.92969,25.728138
56723,Madurai Rameswaram Passenger,Pass,SR,MDU,MADURAI JN,RMM,RAMESWARAM,06:15:00,10:05:00,3.0,50.0,161.0,56722,0,0,0,0,0,0,DHE,Dodhi,NER,Uttar Pradesh,"Dodhi, Uttar Pradesh",82.998947,25.604879
57429,Tirupati Gudur Passenger,Pass,SCR,TPTY,TIRUPATI MAIN,GDR,GUDUR JN,06:30:00,09:10:00,2.0,40.0,93.0,57430,0,0,0,0,0,0,BRDV,Baradev,NR,Uttar Pradesh,"State Highway 38, Uttar Pradesh",80.4119287744,26.7017793648
57447,Secunderabad Mahbubnagar Passenger,Pass,SCR,SC,SECUNDERABAD JN,MBNR,MAHBUBNAGAR,12:50:00,15:50:00,3.0,0.0,113.0,57448,0,0,0,0,0,0,MKHI,Makhi,NR,Uttar Pradesh,"Unnao, Uttar Pradesh",80.46113700000001,26.661427
67295,Rajahmundry Visakhapatnam Pass,Pass,?,RJY,RAJAMUNDRY,VSKP,VISHAKAPATNAM,11:15:00,16:35:00,5.0,20.0,201.0,67296,0,0,0,0,0,0,KZA,KHADA,NER,Uttar Pradesh,"Khadda Katai Bharpurva Bandh, Uttar Pradesh",83.868376,27.182926
